"place_id","place_name","place_name_clean","neighborhood","neighborhood_clean","cuisine","cuisine_clean","reservation_url","image_url","lunch","brunch","dinner","budget","description","address","lon","lat"
NA,"The Four Horsemen","the-four-horsemen","Williamsburg","williamsburg","American","american","https://resy.com/cities/new-york-ny/venues/the-four-horsemen?date=2024-07-17&seats=2","https://res.cloudinary.com/the-infatuation/image/upload/q_auto,f_auto/cms/reviews/four-horsemen/banners/1513024586.68",1,0,1,"$$","A contemporary spot with a focus on tasty New American small plates and a wide selection of natural and biodynamic wines. The vibe is relaxed and inviting, but the dining experience is expertly crafted. Founded by James Murphy from LCD Soundsystem.","295 Grand St, Williamsburg, NY 11211",-74.0021577,40.7280285
"ChIJ9ev4B-FbwokRhzTqc9KP5-I","Shalom Japan","shalom-japan","Williamsburg","williamsburg","Fusion","fusion","https://resy.com/cities/new-york-ny/venues/shalom-japan?seats=2&date=2024-07-15","https://image.resy.com/3/003/2/69657/f60538761589f806f089cf82d45e0ac8aa1a7064/jpg/1600x1600",0,1,1,"$$","This one-of-a-kind spot mixes Jewish and Japanese cuisines, crafted by husband-and-wife chefs Aaron and Sawako. Expect creative eats like matzoh ball ramen and Wagyu pastrami sandwiches, all served in a cozy, inviting atmosphere.","310 S 4th St, Brooklyn, NY 11211",-73.9558364,40.7092035
"ChIJCfLy3phZwokRYh582zJlIiA","The Nines","the-nines","NoHo","noho","American","american","https://resy.com/cities/new-york-ny/venues/thenines?seats=2&date=2024-07-17","https://image.resy.com/3/003/2/7490/067b95cf0a9955859e69fa45e314039c7203f173/jpg/1600x1600",0,0,1,"$$$","This swanky piano bar and restaurant radiates vintage charm with its lush burgundy tones and stylish decor. Enjoy a classy menu filled with caviar, foie gras, and timeless cocktails, all while soaking in the vibrant jazz tunes.","9 Great Jones St, New York, NY 10012, USA",-73.9940546,40.7272258
"ChIJWVj6oIhZwokR-D2XV_jFGwU","Rin Tin Tin","rin-tin-tin","SoHo","soho","Mediterranean","mediterranean","https://www.opentable.com/r/rintintin","https://res.cloudinary.com/the-infatuation/image/upload/q_auto,f_auto/cms/reviews/rintintin/banners/1523026269.45",1,1,1,"$$","A lively restaurant with creative dishes, an upbeat vibe, and quirky decor. It serves a fun dining experience that mixes modern tastes with nostalgic touches.","14 Spring St, New York, NY 10012",-73.9948289,40.7212696
"ChIJtQTimnNbwokROjOc_Cfzm4k","Winonas","winonas","BedStuy","bedstuy","American","american","https://resy.com/cities/new-york-ny/venues/winonas?date=2024-07-17&seats=2","https://image.resy.com/3/003/2/42650/ffde61b57aa9101dce47c66575a672c89a74201a/jpg/1600x1600",0,1,1,"$$","A cozy family-owned spot that serves up seasonal dishes and carefully selected natural wines. The inviting vibe comes from their supper club roots, creating a place for community and good conversations.","676 Flushing Ave, Brooklyn, NY 11206",-73.9457873,40.7000476
"ChIJ3zw7TmFbwokRH-_lOZlKATI","Lalou","lalou","Prospect Heights","prospect-heights","American","american","https://resy.com/cities/new-york-ny/venues/lalou?date=2024-07-17&seats=2","https://res.cloudinary.com/the-infatuation/image/upload/v1656116175/cms/EmilyS_NYC_TheTenBells_BackPatio_04.jpg",1,0,1,"$$","Charming wine spot with a handpicked selection of natural, biodynamic, and small-production wines. Enjoy a French-inspired menu that changes with the seasons, all in a cozy, welcoming vibe.","581 Vanderbilt Ave, Brooklyn, NY 11238",-73.9676249,40.6803229
"ChIJHzZ2mzxbwokR3LxA89MHy78","Cloverhill","cloverhill","Brooklyn Heights","brooklyn-heights","American","american","https://www.exploretock.com/clover-hill-brooklyn/","https://tock-public.imgix.net/imagesprod/user_uploaded_images_v1/effec890-b974-40aa-a8ed-db90a0054fef.jpg?ixlib=js-3.5.1&auto=format&fit=crop&crop=focalpoint&w=1440",1,1,1,"$$$","Charming 34-seat eatery serving a fusion of French and new American dishes crafted by executive chef Charlie Mitchell. Housed in a historic landmark, it boasts a refined yet inviting menu with a friendly vibe.","20 Columbia Pl, Brooklyn, NY 11201",-73.9987279,40.693107
"ChIJWd7fRdZZwokRhru5tn4KsVM","Torrisi","torrisi","NoLiTa","nolita","Italian","italian","https://resy.com/cities/new-york-ny/venues/torrisi?date=2024-07-17&seats=2","https://images.getbento.com/accounts/0ad5a0dc17efb65589997db54130f0b0/media/images/92209s1.jpg?w=1200&fit=crop&auto=compress,format&h=600",1,0,1,"$$$","Stylish Italian eatery housed in a historic building, boasting a standout à la carte menu with top-notch ingredients and a stunning atmosphere. Michelin-starred in 2023, it’s all about elevated dining.","275 Mulberry St, New York, NY 10012",-73.9954001,40.724217
"ChIJCX8uUp9bwokRYeKrFC129zw","D'antan","dantan","Prospect Heights","prospect-heights","Italian","italian","https://www.opentable.com/r/dantan-vino-naturale-e-cucina-italiana-brooklyn?ref=1068","https://images.otstatic.com/prod/26763678/3/large.jpg",0,0,1,"$$","Authentic Italian eatery inspired by classic Piedmontese dishes. Over 100 natural wines, including skin contact varieties. A menu rich in truffle and cream pasta. Romantic vibes with an energetic twist.","858 Bergen Street, Brooklyn, NY 11238",-73.9589301,40.6773882
"ChIJja0-KpdZwokRuOHSWneCBxE","Amelie Bistro & Wine Bar UWS","amelie-bistro--wine-bar-uws","Upper West Side","upper-west-side","American","american","https://resy.com/cities/new-york-ny/venues/amelie-upper-west-side?date=2024-07-17&seats=2","https://offloadmedia.feverup.com/secretnyc.co/wp-content/uploads/2022/07/25092313/39995547_691488951249762_6455995717964958312_n-e1657055510178.jpg",0,1,1,"$$","Charming bistro with Michelin recognition, serving up French and Mediterranean dishes like mussels, ravioli, and goat cheese. Enjoy a cozy vibe and heated outdoor seating.","566 Amsterdam Ave, New York, NY 10024",-73.9746255,40.7887447
"ChIJxwoiopRZwokRttz8Wb0-BLU","L'Artusi","lartusi","West Village","west-village","Italian","italian","https://resy.com/cities/new-york-ny/venues/lartusi-ny?date=2024-07-22&seats=2","https://images.squarespace-cdn.com/content/v1/5c311ba2697a98937f5a1a98/1556772764538-ZW56ALIDSE98U39NQ3WI/IMG_6337.jpg",1,1,1,"$$$","This spot serves up fresh twists on classic Italian dishes, all paired with a great selection of Italian wines. Enjoy cozy seating, a chef's counter, and some private dining options, including a massive wine cellar filled with 2500 bottles.","228 W 10th St, New York, NY 10014",-74.005122,40.7337152
"ChIJG0fkfuJZwokRqmAxXTpYP2I","Bad Roman","bad-roman","Midtown","midtown","Italian","italian","https://www.opentable.com/r/bad-roman-new-york?ref=1068","https://resizer.otstatic.com/v2/photos/wide-xlarge/2/51434279.webp",1,1,1,"$$$","An upscale Italian spot on the third floor, this modern restaurant serves fun takes on Italian classics and house-made pasta. Enjoy a vibrant atmosphere and striking views of Central Park.","10 Columbus Circle, Third Floor, New York, NY 10019",NA,NA
"ChIJhXlSFFVZwokRbQf-lmDUK6k","The Office of Mr. Moto","the-office-of-mr-moto","East Village","east-village","Sushi","sushi","https://www.exploretock.com/mrmoto/search","https://tock-public.imgix.net/imagesprod/user_uploaded_images_v1/e53007397bbbdb5017ae107c3c87d33c.jpg?ixlib=js-3.5.1&auto=format&fit=crop&crop=focalpoint&w=1440",0,0,1,"$$$$","Hidden Japanese restaurant with a speakeasy vibe. Offers a 21-course omakase journey in a two-level space filled with art and unique artifacts. Entry requires decoding a secret cipher.","120 St Marks Pl, New York, NY 10009",-73.9840422,40.7268006
"ChIJq6oPsoNZwokR1hGiiD3wy8g","Foul Witch","foul-witch","Lower East Side","lower-east-side","Italian","italian","https://resy.com/cities/new-york-ny/venues/foul-witch?date=2024-07-22&seats=2","https://image.resy.com/3/003/2/67460/32aaf7e422705d5645cbbf1dd664f331be63e25f/jpg/1600x1600",0,0,1,"$$","Cozy, vintage-inspired spot with a modern Italian menu. Enjoy dishes like 'nduja with stracciatella and veal agnolotti, along with a great selection of natural wines. It's got a touch of gothic charm.","15 Avenue A, New York, NY 10009",-73.9862227,40.7227953
"ChIJEwHZcZNZwokR810IgyQhoZM","Buvette Gastrotheque","buvette-gastrotheque","West Village","west-village","French","french","Walk in Only","https://media-cdn.tripadvisor.com/media/photo-s/1c/e7/8f/41/buvette-gastrotheque.jpg",1,1,1,"$$","A delightful mix of a classic Parisian café and a laid-back local spot, serving refined but easygoing French dishes from breakfast to late-night drinks. The vibe is enhanced by a beautifully designed, European-inspired setting.","42 Grove St, New York, NY 10014",-74.0042831,40.732572
"ChIJyW-u9iZawokRY1sHXGzZHGI","Chinese Tuxedo","chinese-tuxedo","Chinatown","chinatown","Chinese","chinese","https://resy.com/cities/new-york-ny/venues/chinese-tuxedo?date=2024-07-22&seats=2","https://image.resy.com/3/003/2/818/b9c7bab3dbba081e8f00f680df38585fd49bc4f9/jpg/1600x1600",0,0,1,"$$$","Trendy Chinese eatery serving up modern takes on traditional banquet favorites. Energetic vibe, unique cocktails, and a menu that mixes classic and contemporary tastes. All set in a stylish, historic atmosphere.","5 Doyers St, New York, NY 10013",-73.9980744,40.7143387
"ChIJR9legAFZwokRa1s5gcFXPZw","Grand Central Oyster Bar","grand-central-oyster-bar","Midtown","midtown","Seafood","seafood","https://www.opentable.com/grand-central-oyster-bar","https://resizer.otstatic.com/v2/photos/xlarge/1/24915499.webp",1,0,1,"$$","Historic seafood spot since 1913, serving a wide variety of fresh oysters and seafood classics like clam chowder and pan roast. Set in stunning vaulted architecture. A true culinary gem.","89 E 42nd St, New York, NY 10017",-73.977253,40.7526943
"ChIJr7FOf5NZwokRu3CDYtzVmuQ","Via Carota","via-carota","West Village","west-village","Italian","italian","https://resy.com/cities/new-york-ny/venues/via-carota?date=2024-07-22&seats=2","https://assets.bonappetit.com/photos/5b2acb365ebfc15cdca6fd2a/16:9/w_2560,c_limit/via-carota-lead.jpg",1,1,1,"$$","Italian osteria created by chefs Jody Williams and Rita Sodi. Enjoy simple, seasonal dishes in a cozy setting with vintage decor. There's a lovely terrazza for outdoor dining. Winner of a James Beard Award in 2019.","51 Grove St, New York, NY 10014",-74.003691,40.7330983
"ChIJTX6hP5NZwokR93muGu7l4X0","Little owl","little-owl","West Village","west-village","Mediterranean","mediterranean","https://www.opentable.com/r/little-owl-west-village?ref=1068","https://resizer.otstatic.com/v2/photos/wide-xlarge/3/51835878.webp",1,1,1,"$$$","Cozy, inviting restaurant serving flavorful Mediterranean dishes with attentive, friendly service. Seasonal menus and a curated wine selection, all in a warm, rustic setting. A local favorite for a memorable meal.","90 Bedford St, New York, NY 10014",-74.0052999,40.7323594
"ChIJUw68EZJZwokRJ15RD_T4OTw","Dante NYC","dante-nyc","NoHo","noho","Italian","italian","https://resy.com/cities/new-york-ny/venues/dante?date=2024-07-22&seats=2","https://image.resy.com/3/003/2/1290/55a4305a8285d9b7c8204ffec5319734394976b7/jpg/1600x1600",1,1,1,"$$$","This historic cafe has been around since 1915. It serves up tasty small plates of modern Italian dishes and top-notch cocktails, like the famous negroni and garibaldi. The vibe is charming and refreshed.","79-81 Macdougal St, New York, NY 10012",-74.0021577,40.7280285
"ChIJmSvG_ZFZwokRTOFeiLXzkmA","Carbone New York","carbone-new-york","Greenwich Village","greenwich-village","Italian","italian","https://resy.com/cities/new-york-ny/venues/carbone?date=2024-07-22&seats=2","https://pyxis.nymag.com/v1/imgs/23f/463/5706c54f4cde96328bc3ac7d1cc311c28b-carbone-01.rsocial.w1200.jpg",1,0,1,"$$$","A throwback Italian-American spot inspired by mid-century diners. Think classic vibes with a Godfather flair, serving up veal parmesan and seafood cocktails. It’s a fancy dining experience with all the bells and whistles.","181 Thompson St, New York, NY 10012",-74.0002055,40.7280368
"ChIJK0Nld6ZZwokRyOd9fsyinLY","The Smith","the-smith","Upper West Side","upper-west-side","American","american","https://www.opentable.com/the-smith-lincoln-square","https://resizer.otstatic.com/v2/photos/xlarge/1/53040024.webp",1,1,1,"$$","A bustling American brasserie with a fresh take on traditional dishes, creative cocktails, and a thoughtful wine selection. Casual and energetic, it's great for any meal or celebration.","1900 Broadway, New York, NY 10023",-73.9818733,40.7719194
"ChIJW_WGT2BZwokRNpvZ4k3lVcs","Maison Premiere","maison-premiere","Williamsburg","williamsburg","Seafood","seafood","https://resy.com/cities/new-york-ny/venues/maison-premiere?date=2024-07-22&seats=2","https://i.pinimg.com/736x/e1/41/b9/e141b924de3986262d7e97fecbe07bdd.jpg",1,1,1,"$$$","A lively mix of a Parisian café and a New Orleans cocktail spot. Famous for a wide selection of oysters, absinthe service, and creative classic cocktails. All in a cozy, history-inspired setting.","298 Bedford Ave, Brooklyn, NY 11249",-73.9616513,40.7142593
"ChIJlUslZldYwokRcn6kVUP-9Io","Yakitori Torishin","yakitori-torishin","Midtown","midtown","Japanese","japanese","https://resy.com/cities/new-york-ny/venues/torishin?date=2024-07-22&seats=2","https://www.seenewyork.nyc/wp-content/uploads/2016/04/b6dabc3f26011450b4c21b0ac1cd90d2-2.jpg",0,0,1,"$$$$","Michelin-starred spot serving genuine Japanese yakitori. Has a mezzanine for groups and a cozy counter for watching chefs cook with special charcoal. A unique blend of elegance and intimacy.","362 W 53rd St, New York, NY 10019",-73.9871758,40.7649952
"ChIJ71HLcIxZwokRXymDgawloWI","Cipriani Downtown NYC","cipriani-downtown-nyc","SoHo","soho","Italian","italian","https://resy.com/cities/new-york-ny/venues/cipriani-downtown?date=2024-07-22&seats=2","https://image.resy.com/3/003/2/35674/513d574f4843ebf97fffc4f80eb876401c1dacb0/jpg/1600x1600",1,0,1,"$$$$","Chic Italian eatery serving up classics like pasta, salmon, and roast Cornish hen. Vibrant ambience with outdoor seating and an extensive drink selection.","376 W Broadway, New York, NY 10012",-74.0028707,40.7236281
"ChIJw_TGEwBZwokR-zLts543O-4","Gabriel Kreuther","gabriel-kreuther","Midtown","midtown","French","french","https://resy.com/cities/new-york-ny/venues/gabriel-kreuther?date=2024-07-22&seats=2","https://images.squarespace-cdn.com/content/v1/5b81a4e59f8770d7938eeefb/1678398398704-IXWS8HIKUALIFH92GQ25/image-asset.jpeg",1,0,1,"$$$$","Gabriel Kreuther is a two-Michelin-star restaurant serving modern Alsatian dishes with French, German, and American twists. The stylish dining area boasts reclaimed wood beams and offers tasting menus. Enjoy a selection of delightful small plates and an impressive wine list.","41 W 42nd St, New York, NY 10036",-73.98218,40.7541195
"ChIJt7fMLIlZwokRCRtM9bNDg78","Balthazar","balthazar","SoHo","soho","French","french","https://resy.com/cities/ny/balthazar-nyc?date=2023-03-09&seats=2","https://resizer.otstatic.com/v2/photos/wide-huge/1/25178314.jpg",1,1,1,"$$$","Classic French brasserie serving up traditional meals all day. Enjoy steak frites and French onion soup in a stunning, vintage-inspired atmosphere. A perfect blend of charm and sophistication.","80 Spring Street, New York, NY 10012",-73.9981644,40.7226578
"ChIJ7cmhqPVZwokRcWzLzM5e-5A","Wolfgang's Steakhouse","wolfgangs-steakhouse","Midtown","midtown","Steakhouse","steakhouse","https://www.opentable.com/wolfgangs-steak-house-times-square","https://resizer.otstatic.com/v2/photos/xlarge/1/23696143.jpg",1,0,1,"$$$$","An elegant steakhouse with vintage vibes, nestled in a historic hotel. Known for its top-notch steaks, seafood, and sides. Perfect for special nights out or important business dinners.","200 E 54th St, New York, NY 10022",-73.9686857,40.7580687
"ChIJ8Q2WSpJZwokRQz-bYYgEskM","Joe's Pizza","joes-pizza","FiDi","fidi","Pizza","pizza","Walk in Only","https://s3-media0.fl.yelpcdn.com/bphoto/6e7BcBhsdaEpu3jtb_qViA/348s.jpg",1,0,1,"$","Classic New York pizzeria dishing out genuine street-style slices and pies since 1975. Famous for its perfectly charred crust and the right balance of sauce and toppings. A go-to spot for late-night cravings, open until 4am.","124 Fulton St, New York, NY 10038",-74.0077473,40.7101224
"ChIJldiPNKNZwokRrm9ORNCKwC4","L' Avenue at Saks","l-avenue-at-saks","Midtown","midtown","French","french","https://resy.com/cities/new-york-ny/venues/lavenue?date=2024-07-22&seats=2","https://image.resy.com/3/003/2/4707/0ab7225c19a01c4433541d164def1d7e4b5e7a18/jpg/1600x1600",1,1,1,"$$$","Upscale dining spot with a chic French art deco vibe designed by Philippe Starck. Enjoy a stylish mix of French and Southeast Asian dishes in a lively atmosphere. It's all about elegance with a splash of flair.","8 E 50th St, 9th Floor, New York, NY 10022",NA,NA
"ChIJWZVoalVYwokRnPIXV2adxKA","The Long room","the-long-room","Theater District/Times Square","theater-districttimes-square","Irish","irish","https://resy.com/cities/ny/the-long-room?date=2023-03-09&seats=2","https://resy.com/cities/new-york-ny/venues/the-long-room?date=2024-07-22&seats=2",1,1,1,"$$","Genuine Irish pub and eatery serving a varied menu, with live music on Fridays. Enjoy a warm and inviting vibe for dining and hanging out.","120 W 44th St, New York, NY 10036",-73.9843423,40.7563913
"ChIJK0Nld6ZZwokRyOd9fsyinLY","Smith & Wollensky","smith--wollensky","Midtown","midtown","Steakhouse","steakhouse","https://www.opentable.com/r/smith-and-wollensky-new-york?corrid=7dbcec63-6311-4746-9852-d92b7d47db19&avt=eyJ2IjoyLCJtIjoxLCJwIjowLCJzIjowLCJuIjowfQ&p=2&sd=2023-03-18T20%3A30%3A00","https://images.otstatic.com/prod/27687231/4/huge.jpg",1,0,1,"$$$$","Classic steakhouse serving USDA Prime dry-aged steaks, top-notch seafood, and acclaimed wines. A relaxed yet classy atmosphere perfect for special events and business dinners.","797 Third Avenue, New York, NY 10022",-73.9270971,40.8110337
"ChIJ22wiSIpZwokRUmlXovJnWDI","La Mercerie","la-mercerie","SoHo","soho","French","french","https://resy.com/cities/ny/la-mercerie-at-the-guild?date=2023-03-09&seats=2","https://static01.nyt.com/images/2017/12/20/dining/20sell7SUB/merlin_131178758_51431cca-996a-4543-90ea-7a866dbccdfb-superJumbo.jpg",1,1,1,"$$$","Stylish spot with a Parisian vibe serving modern French dishes. An open kitchen adorned with marble, plus sophisticated decor featuring blue banquettes and artistic flower displays. A perfect blend of chic and comfort.","53 Howard St, SoHo, New York, NY 10013",-74.0021478,40.7202081
"ChIJ2fUkDpRZwokRUfmdRhH-Czg","Joseph Leornard","joseph-leornard","West Village","west-village","American","american","https://resy.com/cities/ny/joseph-leonard?date=2023-03-09&seats=2","https://www.meltingbutter.com/wp-content/uploads/2014/02/305-blog_nyc-hotspot-find-joseph-leonard.png",1,1,1,"$$$","Charming American bistro with a warm tavern vibe, serving delicious, light meals all day long. It buzzes with energy, has a popular brunch, and doesn’t take reservations. A favorite local spot with a rustic feel.","170 Waverly Place, New York, NY 10014",-74.0016502,40.7335936
"ChIJbY3-ye5YwokRWOG8XH8DqSw","The East Pole","the-east-pole","Upper East Side","upper-east-side","American","american","https://www.opentable.com/r/the-east-pole-kitchen-and-bar-new-york?corrid=c29fb184-2e5a-4bcc-ad2e-c64f7988f923&avt=eyJ2IjoyLCJtIjowLCJwIjowLCJzIjowLCJuIjowfQ&p=2&sd=2023-03-19T12%3A00%3A00","https://www.habituallychic.luxury/wp-content/uploads/sites/2/2014/03/13.-east-pole-ues-habituallychic.jpg",0,1,1,"$$$","Charming brownstone setting with classy, seasonal farm-to-table meals. Enjoy simple but elevated home-cooked dishes. Cozy private dining spaces create an inviting feel, while the atmosphere is fresh and revitalizing.","133 E 65th St, New York, NY 10065",-73.9656812,40.7663151
"ChIJKa5H-LxZwokRJfUaodNgwQk","Mission Sandwich Social","mission-sandwich-social","Williamsburg","williamsburg","Deli & Bagel","deli--bagel","Walk in Only","https://s3-media0.fl.yelpcdn.com/bphoto/bqE1LHEHfLzwz9flyX9HbA/348s.jpg",1,1,1,"$","Counter-service sub shop by Chef Brian Tsao serving up hearty, saucy subs on freshly baked Dutch Crunch bread. Expect bold flavors and a heavy metal vibe. No seating, but the walls are alive with vibrant graffiti.","326 Bedford Ave, Brooklyn, NY 11249",-73.9622764,40.7131768
"ChIJ14y5HwNZwokRxY9i9s7Ugcg","Sakagura","sakagura","Midtown","midtown","Japanese","japanese","https://resy.com/cities/new-york-ny/venues/sakagura?date=2024-07-22&seats=2","https://media.timeout.com/images/100417017/image.jpg",1,0,1,"$$$","This hidden gem is a cozy underground Japanese eatery famous for its vast sake selection (more than 260 types) and real tapas-style fare. Enjoy a calm, traditional vibe right in the midst of the city's hustle and bustle.","211 E 43rd St, New York, NY 10017",-73.9731311,40.7512542
"ChIJ2fEjn-RZwokRe9eppEiXc4E","The Tyger","the-tyger","SoHo","soho","Asian","asian","https://resy.com/cities/new-york-ny/venues/the-tyger?date=2024-07-22&seats=2","https://image.resy.com/3/003/2/34814/dfb80657340616894b0372c46f718c08a4d9cf41/jpg/1600x1600",0,0,1,"$$$","A full-service Southeast Asian eatery run by international chef Paul Donnelly. It serves lively, modern dishes inspired by East Asian flavors. Enjoy a bright and aromatic vibe in a welcoming dining space.","1 Howard St, New York, NY 10013",-73.9995074,40.7188128
"ChIJu7pIuopZwokRvIsndYhPg4U","Frenchette","frenchette","Tribeca","tribeca","French","french","https://resy.com/cities/new-york-ny/venues/frenchette?date=2024-07-22&seats=2","https://cdn.vox-cdn.com/thumbor/7AOrrni6WY2UgpiQ5Wa3eDQA4mc=/0x0:5760x3840/1200x675/filters:focal(2420x1460:3340x2380)/cdn.vox-cdn.com/uploads/chorus_image/image/59353619/Frenchette_14.0.jpg",1,1,1,"$$$","Contemporary bistro serving classic and modern French dishes. Think chic brasserie vibes with zinc bars, marble floors, and burgundy leather seating. Famous for amazing food and a great natural wine selection.","241 West Broadway, New York, NY 10013",-74.0057809,40.7196322
"ChIJq75Ur-tZwokRo7I_F_PhlcU","L'Abeille","labeille","Tribeca","tribeca","French","french","https://resy.com/cities/new-york-ny/venues/labielle?date=2024-07-22&seats=2","https://galavante.com/wp-content/uploads/2022/09/LAbeille-NYC-Atmosphere-.jpeg",0,0,1,"$$$$","Michelin-starred French restaurant with a Japanese twist. Seasonal tasting menu and à la carte choices. Upscale vibe with a friendly feel. Award-winning wine and cocktail selection.","412 Greenwich St, New York, NY 10013",-74.0098451,40.7212949
"ChIJISXTwWJZwokRIok4xyMeb6g","One White Street","one-white-street","Tribeca","tribeca","American","american","https://resy.com/cities/new-york-ny/venues/one-white-street?date=2024-07-21&seats=2","https://image.resy.com/3/003/2/49137/80ee8738cabee8d2e3e739cdf3bc472264c424c1/jpg/1600x1600",0,0,1,"$$$","A unique neighborhood spot in a charming historic townhouse. Enjoy a farm-to-table vibe with international flavors, a relaxed wine bar, and a refined tasting menu. All ingredients are locally sourced from the Hudson Valley.","1 White St, New York, NY 10013",-74.0059677,40.719282
"ChIJ2a47oB9awokRj5umaLKRd1s","Tiny's and the bar Upstairs","tinys-and-the-bar-upstairs","Tribeca","tribeca","American","american","https://www.opentable.com/restref/client/?rid=77635&restref=77635&datetime=2023-04-09T12%3A00&covers=2&rtype=ism&searchdatetime=2023-04-09T12%3A00&partysize=2&lang=en&corrid=8dec36ab-d3b7-43b5-846d-fc661e783efd","https://accidentallywesanderson.com/wp-content/uploads/2021/02/130359143_211877837226857_8066155577402139443_n.jpg",0,1,1,"$$","Charming 1810 pink townhouse with a cozy, dim atmosphere. Enjoy modern American dishes with farm-fresh and organic choices. Ideal for romantic dinners and big celebrations.","135 W Broadway, New York, NY 10013",-74.0080147,40.7167112
"ChIJ4bYvf1BawokRn1L4oKgS2mk","Kitchen at Cobble Hill","kitchen-at-cobble-hill","Cobble Hill","cobble-hill","Mediterranean","mediterranean","https://www.opentable.com/r/kitchen-at-cobble-hill","https://f21898f3347ec7b42dcb.cdn6.editmysite.com/uploads/b/f21898f3347ec7b42dcb5abcf067ad1a683bd8f8396895365c5c5d59637279a4/interior3_1652229849.jpg?width=2400&optimize=medium",1,1,1,"$$","Modern Mediterranean and Aegean dishes made with fresh, local ingredients. Cozy vibe with creative meals and craft cocktails. Perfect for casual dinners or special gatherings.","254 Court St, Brooklyn, NY 11231",-73.994628,40.6853397
"ChIJRcCC14VZwokRvJiDo29-IGM","Freemans","freemans","Lower East Side","lower-east-side","American","american","https://resy.com/cities/ny/freemans?date=2023-03-22&seats=2","https://images.squarespace-cdn.com/content/v1/55c8d2a4e4b0168e0edc0b4b/1439821242281-MJWBEDN2BKYJDOFMMVKE/Outside-hero-shot.jpg",1,1,1,"$$","Secluded tavern with a colonial vibe, serving up hearty, rustic dishes rooted in Old World recipes. The space boasts a moody, eclectic look, creating a cozy yet mysterious atmosphere.","End of Freemans Alley, New York, NY 10002",NA,NA
"ChIJQ5drEVRZwokR-IeGxQzxDgo","Santa Fe BK","santa-fe-bk","Williamsburg","williamsburg","American","american","https://resy.com/cities/ny/santa-fe-bk?date=2023-03-21&seats=2","https://cdn.vox-cdn.com/thumbor/TuvkYO58ARKHFnCh56KYa9K6TXA=/0x0:4000x2667/1200x0/filters:focal(0x0:4000x2667):no_upscale()/cdn.vox-cdn.com/uploads/chorus_asset/file/23052586/ChristianR_SantaFe_2.jpg",1,0,1,"$$","Authentic New Mexico flavors served up in Brooklyn. Enjoy Southwestern-style green chile breakfast burritos, cheeseburgers, and dinner favorites like enchiladas. Pair your meal with hand-muddled margaritas in a cozy, friendly vibe.","178 N 8th St, Brooklyn, NY 11211",-73.9567193,40.7179303
"ChIJlTKLqJVZwokRH2TS2qm12hg","Tartine","tartine","West Village","west-village","French","french","Walk in Only","https://newyork-onmymind.com/wp-content/uploads/2015/08/Tartine-in-New-York.jpg",1,1,1,"$$","Charming French bistro created by Chef Thierry Rochard 33 years ago. Offers simple, delicious dishes and weekend brunch in a cozy, friendly vibe.","253 W 11th St, New York, NY 10014",-74.0034423,40.7362886
"ChIJfxC19JVZwokRX2uKgQAL17c","Don Angie","don-angie","West Village","west-village","Italian","italian","https://resy.com/cities/new-york-ny/venues/don-angie?date=2024-07-22&seats=2","https://images.squarespace-cdn.com/content/v1/52f4133de4b08200b4da975e/1540222814305-LZUBBH1T9ZOJS5N1MBK0/Don+Angie+Restaurant+_+juanpablolira%2Bcopyright2017_-4.jpg?format=2500w",0,0,1,"$$$","Cozy Italian-American eatery with a lively vibe and amazing comfort food. Their lasagna is a must-try, and the cocktail selection is on point.","103 Greenwich Ave, New York, NY 10014",-74.0019928,40.7378039
"ChIJvfpl3GpZwokR9Doyl16Ku_w","The Mary Lane","the-mary-lane","West Village","west-village","American","american","https://resy.com/cities/ny/the-mary-lane?date=2023-03-21&seats=2","https://thevendry.com/cdn-cgi/image/width=3840,quality=75,fit=contain,metadata=none,format=auto/https%3A%2F%2Fs3.amazonaws.com%2Fuploads.thevendry.co%2F21034%2F1644091439784_51717040457_d510a70b8a_k.jpg",1,1,1,"$$","Seasonal New American restaurant with Chef Mike Price’s locally sourced, market-driven dishes. Bright and airy dining room plus an outdoor tent for all weather. Enjoy a cozy and sophisticated dining vibe.","99 Bank St, New York, NY 10014",-74.0063921,40.7365419
"ChIJx37KeNdZwokRyB6-AUDI1is","Le Garage","le-garage","Bushwick","bushwick","French","french","https://resy.com/cities/ny/le-garage?date=2023-03-29&seats=2","https://resizer.otstatic.com/v2/photos/wide-huge/1/24367887.jpg",1,1,1,"$$","Charming French bistro in a repurposed garage. Stylish yet cozy vibe, complete with an open kitchen. Offers home-style French dishes with a Normandy flair, plus organic wines and craft cocktails. Managed by a dynamic mother-daughter team.","157 Suydam St, Brooklyn, NY 11221",-73.92664,40.6992949
"ChIJSc_3GIVYwokRh6OzVnCnh6g","Prohibition","prohibition","Upper West Side","upper-west-side","American","american","https://resy.com/cities/ny/prohibition-new-york?date=2023-04-01&seats=2","https://static.spotapps.co/website_images/ab_websites/119902_website/about_pg.jpg",0,1,1,"$$","Lively spot with a fun 1920s vibe, serving up a modern American menu and creative cocktails. Enjoy nightly live music in both a spacious dining area and a cozy secret room. A blend of sophistication and cool.","503 Columbus Avenue, New York, NY 10024",-73.9727469,40.7852217
"ChIJc71Q34VYwokRARHW9df6Zgs","Jin Ramen Upper West Side","jin-ramen-upper-west-side","Upper West Side","upper-west-side","Ramen","ramen","Walk in Only","https://tb-static.uber.com/prod/image-proc/processed_images/a39a3454acf2aa49f615675c316fd177/fb86662148be855d931b37d6c1e5fcbe.jpeg",1,0,1,"$$","This spot offers top-notch Japanese ramen, tasty fried chicken, and various Asian dishes. Enjoy happy hour and easy takeout and delivery. Great food in a fun atmosphere.","462 Amsterdam Ave, New York, NY 10024",-73.9770455,40.7853841
"ChIJ3cUFdpxZwokR6oOwbesBRXQ","Hasaki","hasaki","East Village","east-village","Japanese","japanese","https://resy.com/cities/ny/hasaki?date=2023-04-07&seats=2","https://images.squarespace-cdn.com/content/v1/59bc0eee017db22a2ccbff0e/1702933799710-57IE9494EZIJ4YMBJBRB/P1045165.jpg",1,0,1,"$$$","A beloved local spot since 1984, this place serves top-notch Edomae sushi and fresh sashimi in a warm, welcoming atmosphere. Renowned for its reliable dishes and neighborhood vibe, it's perfect for both laid-back meals and special occasions.","210 E 9th St, New York, NY 10003",-73.9888332,40.7296626
"ChIJ9Yjyxk5ZwokRhq1BaK2T0eA","11 Tigers","11-tigers","East Village","east-village","Asian","asian","https://resy.com/cities/ny/11-tigers?date=2023-04-07&seats=2","https://www.bestambiance.com/wp-content/uploads/2023/01/Screenshot-2023-01-13-152616-aspect-ratio-800-800.png",0,1,1,"$$","A hidden gem inspired by Prohibition, this spot mixes Thai and Japanese flavors. Enjoy inventive dishes like Tom Yum Ramen and Black Panther Curry, plus one-of-a-kind Yadong cocktails. The stylish space is adorned with striking tiger murals.","225 Avenue B, 2nd floor, New York, NY 10009",NA,NA
"ChIJ1-mW-LhbwokR7Ryv5ha-gzc","Diner","diner","Williamsburg","williamsburg","American","american","https://resy.com/cities/ny/diner?utm_%3Futm_Paid%20&utm_medium=Search%20&utm_campaign=Reservationships_Evergreen&gclid=Cj0KCQjwuLShBhC_ARIsAFod4fKl_jCNl0Ak6XipO21U_z_J-KFLg-F85Ph6l3CCCZmz-kqo6OGPe7waAoErEALw_wcB&gclsrc=aw.ds&date=2023-04-05&seats=2","https://image.resy.com/3/003/2/2038/86548720a7c611dc5cb521501378b1e3aaba3cb3/jpg/1600x1600",1,1,1,"$$","A charming eatery set in a vintage Pullman dining car that’s around 90 years old. It serves local, seasonal, and sustainable dishes in a warm wooden setting. A cherished spot in the community for more than 22 years.","85 Broadway, Brooklyn, NY 11249",-73.9656116,40.7106919
"ChIJJXCD6ltZwokRJ_cwjKQH63c","Lilia","lilia","Williamsburg","williamsburg","Italian","italian","https://resy.com/cities/new-york-ny/venues/lilia?date=2024-07-24&seats=2","https://images.getbento.com/accounts/7bf67b2820625f9f7c33d7b0403a8cca/media/yPESVGQ3ump0k9KQLUwj_Lilia-0741.jpg?w=1200&fit=crop&auto=compress,format&h=600",0,0,1,"$$$","An Italian eatery in a revamped auto shop, serving handmade pastas, wood-fired seafood, and steaks. The wine list is all Italian, and the cocktails are classic. Bright, polished vibes with warm service.","567 Union Ave, Brooklyn, NY 11222",-73.9524013,40.7176165
"ChIJD6vUMlpZwokRSFeGSBW_gvU","Llama Inn","llama-inn","Williamsburg","williamsburg","Latin American","latin-american","https://resy.com/cities/ny/llama-inn?date=2023-04-08&seats=2","https://res.cloudinary.com/the-infatuation/image/upload/v1656121705/cms/reviews/llama-inn/Llama__Inn_1.jpg",0,1,1,"$$$","Llama Inn is a lively, contemporary Peruvian spot that serves fresh and exciting dishes made by Chef Erik Ramirez. Enjoy the energetic atmosphere, inventive ceviche, and a wide selection of Pisco and Latin spirits.","50 Withers St, Brooklyn, NY 11211",-73.950493,40.7166231
"ChIJE726doFZwokRvb1_kHKC9dk","DDOBAR by Joomak NYC","ddobar-by-joomak-nyc","Chelsea","chelsea","Asian","asian","https://resy.com/cities/new-york-ny/venues/ddobar?date=2024-07-21&seats=2","https://image.resy.com/3/003/2/68098/330c38bccc46374bd6dc0910aa3902a1a293b8d1/jpg/1600x1600",1,0,1,"$","Stylish spot serving creative Korean ""pastry cuisine"" by Michelin-starred Chef Jiho Kim. Menu highlights include Yubu Tarts, Korean inari sushi, and elevated dishes in a relaxed atmosphere.","601 W 26th St, New York, NY 10001",-74.0067152,40.7516485
"ChIJValK9JJZwokRuWsMUxsoE-E","Market Table","market-table","West Village","west-village","American","american","https://resy.com/cities/ny/market-table-nyc?date=2023-04-14&seats=2","https://goop-img.com/wp-content/uploads/2015/08/MarketTable2.jpg",1,1,1,"$$$","Farm-to-table spot opened in 2007 by Chefs Mike Price and Joey Campanaro. Seasonal American dishes served in a relaxed yet stylish vibe. Enjoy floor-to-ceiling windows with great views of the village.","54 Carmine St, New York, NY 10014",-74.0037432,40.72978
"ChIJM2NCGJ1ZwokRA2nCkZcz08g","MàLá Project - East Village","ml-project--east-village","East Village","east-village","Chinese","chinese","https://resy.com/cities/new-york-ny/venues/mala-project?date=2024-07-24&seats=2","https://res.cloudinary.com/the-infatuation/image/upload/q_auto,f_auto/cms/reviews/mala-project/banners/1557242225.75",0,1,1,"$$","This Michelin Bib Gourmand spot serves up neo-Sichuanese dishes, especially their customizable dry pot. You'll also find Sichuan favorites like dan dan noodles and the cold husband and wife appetizer. The vibe is cozy and spacious.","122 First Ave, Manhattan, NY 10009",NA,NA
"ChIJe_ZBhY1ZwokRGAEwGLWYpA8","Charlie Bird","charlie-bird","SoHo","soho","Italian","italian","https://resy.com/cities/ny/charlie-bird?date=2023-04-15&seats=2","https://media.cntraveler.com/photos/5859aad8eaa56c5e65d43539/16:9/w_2560,c_limit/best-restaurants-NYC-Charlie-Bird-interior-2016.jpg",1,1,1,"$$$","Trendy Italian eatery with a lively vibe, friendly service, and a curated wine selection. The space boasts brick walls, comfy leather seating, and a fresh hip-hop playlist. Enjoy inventive pastas and seafood creations.","5 King Street, New York, NY 10012",-74.0028571,40.7277301
"ChIJgx0sRypZwokRuk6Tjic2Q4g","Flipper's NYC","flippers-nyc","SoHo","soho","Desserts","desserts","Walk in Only","https://static.wixstatic.com/media/d81ca1_349296bb0fb0406c885f01c7217e034a~mv2.png/v1/fill/w_280,h_280,q_75/d81ca1_349296bb0fb0406c885f01c7217e034a~mv2.png",1,1,0,"$$","This lively spot serves up unique pancakes like Matcha and Strawberry. Enjoy classic brunch dishes too, such as Eggs Benedict, burgers, and avocado toast. It’s a fun place to eat at the city's core.","337 W Broadway, New York, NY 10013",-74.0035719,40.7224085
"ChIJkRWC9WFZwokRfa5Uzor3e-g","Sunday In Brooklyn","sunday-in-brooklyn","Williamsburg","williamsburg","American","american","https://resy.com/cities/new-york-ny/venues/sunday-in-brooklyn?date=2024-07-24&seats=2","https://media.timeout.com/images/105163845/image.jpg",1,1,1,"$$","Charming eatery with a cozy yet chic vibe. Enjoy creative American dishes made from fresh, seasonal ingredients. Highlights include malted pancakes and a smash burger. All in a friendly, stylish setting.","348 Wythe Ave, Brooklyn, NY 11249",-73.965297,40.7142
"ChIJz0Bt0ldZwokR698-eT0Dh88","KRU Brooklyn","kru-brooklyn","Williamsburg","williamsburg","Asian","asian","https://resy.com/cities/ny/kru?date=2023-04-16&seats=2","https://resizer.otstatic.com/v2/photos/huge/2/58787161.jpg",0,0,1,"$$","Trendy spot serving up a fresh take on century-old Thai dishes. This MICHELIN Bib Gourmand 2024 spot offers laid-back dining with a cozy outdoor area and plenty of drink choices.","190 N 14th St, Brooklyn, NY 11249",-73.9557852,40.7228202
"ChIJ4faAXmBZwokRebmpx9kQxx4","Le Crocodile","le-crocodile","Williamsburg","williamsburg","French","french","https://resy.com/cities/ny/le-crocodile?date=2023-04-16&seats=2","https://cdn.vox-cdn.com/thumbor/0dQDR-KvkKYdkyNeFB_Lmeg3rPI=/1400x1400/filters:format(jpeg)/cdn.vox-cdn.com/uploads/chorus_asset/file/19765898/2020_01_31_Le_Crocodile_Read_McKendree_0012_V1.jpg",1,1,1,"$$$","All-day French brasserie serving up creative and hearty dishes. Enjoy steak tartare, moules mariniere, and standout options like roast chicken and sticky banana date pudding. Don’t forget to check out the impressive wine and cocktail selections.","80 Wythe Ave, Brooklyn, NY 11249",-73.9657681,40.7130477
"ChIJDcyu2_9YwokRN2jyzlJQBWc","Kellari Taverna","kellari-taverna","Midtown","midtown","Greek","greek","https://www.opentable.com/r/kellari-taverna-new-york","https://images.sideways.nyc/4eBwaqvFN5Q9EWvBzhZnu2/kellari-taverna-1.jpg?auto=format&w=768&fit=crop",1,1,1,"$$$","Family-run Greek eatery serving up true Mediterranean flavors, fresh seafood, and a friendly vibe. Think classic dishes reimagined, a wide selection of Greek wines, and stylish yet relaxed dining spots.","19 W 44th St, New York, NY 10036",-73.9808892,40.7553003
"ChIJ_zuGPv1YwokRPdpCK3wYGFg","Avra 48th st","avra-48th-st","Midtown","midtown","Greek","greek","https://resy.com/cities/new-york-ny/venues/avra-48thstreet?date=2024-07-24&seats=2","https://images.otstatic.com/prod1/43469019/1/huge.jpg",1,1,1,"$$$","Charming Greek restaurant with cozy wood decor and draped ceilings. It brings a traditional taverna vibe and serves up authentic coastal Greek dishes. A true gem since 2000.","141 E 48th St, New York, NY 10017",-73.9728557,40.7551602
"ChIJK_nYHfBYwokR03Tv5S3dW1s","Avra Madison","avra-madison","Midtown","midtown","Greek","greek","https://resy.com/cities/new-york-ny/venues/avra-madison?date=2024-07-24&seats=2","https://vrconcierge.com/wp-content/uploads/2021/06/avra-madison-estiatorio-new-york-interior-7-768x511.jpg",1,1,1,"$$$$","An iconic two-level restaurant close to Central Park, serving upscale Greek dishes made with top-notch ingredients. It boasts a lively atmosphere and modern decor, ensuring a dining experience you'll remember.","14 E 60th St, New York, NY 10022",-73.9716079,40.7643032
"ChIJ-VwGucdZwokR7z37AtZgIVg","Avra Rockefeller Center","avra-rockefeller-center","Midtown","midtown","Greek","greek","https://resy.com/cities/new-york-ny/venues/avra-rockefeller-center?date=2024-07-24&seats=2","https://image.resy.com/3/003/2/59999/f7ae52ce3370994f259962b368cf1cb4a5672cc5/jpg/1:1/1600",1,1,1,"$$$$","Sleek spot with a refined take on classic Greek tavernas. Fresh Mediterranean seafood, locally sourced ingredients, and a spacious, luxe vibe inside a historic building. A perfect blend of style and flavor.","1271 Avenue of the Americas, New York, NY 10020",-73.9811755,40.7606976
"ChIJD-1a9ChawokRnTSi_Et62x4","Kiki's","kikis","Chinatown","chinatown","Greek","greek","Walk in Only","https://c8.alamy.com/comp/TTER9B/kikis-130-division-street-new-york-ny-exterior-storefront-of-a-restaurant-in-manhattans-gentrifying-dimes-square-chinatownlower-east-side-TTER9B.jpg",1,1,1,"$$","Charming Greek tavern serving up classics like grilled octopus, tzatziki, and spanakopita. Warm, dim lighting creates a lively vibe. Local charm meets a fun atmosphere.","130 Division St, New York, NY 10002, USA",-73.9919097,40.7145315
"ChIJ16J3sV5fwokR9aR0wep6w0Q","Agnanti","agnanti","Astoria","astoria","Greek","greek","Walk in Only","https://media-cdn.tripadvisor.com/media/photo-s/18/dc/c6/96/interior-is-very-attractive.jpg",1,0,1,"$$","This spot serves a mix of Greek and Turkish ""Constantinople cuisine."" Enjoy meze, lamb, seafood, plus tasty dishes like phyllo-crusted meat pie and shrimp in zesty lemon sauce. All this in a cozy Aegean taverna vibe with a view of the park.","1906 Ditmars Blvd, Astoria, NY 11105",NA,NA
"ChIJhXfp8HVZwokRKCGfuDsTj9Y","Taverna Kyklades","taverna-kyklades","Astoria","astoria","Greek","greek","Walk in Only","https://www.tavernakyclades.com/images/Astoria-Gallery/DP5_1408.jpg",1,0,1,"$$","Famous for its fresh seafood and classic Greek fare like grilled octopus and saganaki. A friendly vibe with a taxidermy swordfish and colors of the Greek flag. Casual and inviting.","36-01 Ditmars Blvd, Astoria, NY 11105",NA,NA
"ChIJhXfp8HVZwokRKCGfuDsTj9Y","Taverna Kyklades East Village","taverna-kyklades-east-village","East Village","east-village","Greek","greek","Walk in Only","https://www.tavernakyclades.com/images/Astoria-Gallery/DP5_1408.jpg",1,0,1,"$$","Popular Greek spot known for fresh dishes crafted from high-quality ingredients using authentic recipes. A devoted team ensures quick service and enjoyable experiences in a welcoming, family-run setting.","228 1st Ave, New York, NY 10009",-73.982565,40.7310339
"ChIJfZrQSJ1ZwokREBcOmNf9lew","Pylos","pylos","East Village","east-village","Greek","greek","https://resy.com/cities/new-york-ny/venues/pylos?date=2024-07-24&seats=2","https://www.estiator.com/wp-content/uploads/2017/03/ESTIATOR-Pylos-Continue-to-Sparkle.jpg",1,1,1,"$$$","Elegant eatery serving modern Greek dishes made with fresh ingredients sourced from all over Greece. Rustic decor with terra-cotta pots and whitewashed walls. Proud recipient of a MICHELIN Plate.","128 E 7th St, New York, NY 10009",-73.984149,40.7260649
"ChIJBYj8OUFZwokR7hltcrTKOCc","Nishida Sho-ten","nishida-shoten","Turtle Bay","turtle-bay","Ramen","ramen","Walk in Only","https://s3-media0.fl.yelpcdn.com/bphoto/-Hlwfp1cdWQQQ1zpw8z92w/348s.jpg",1,0,1,"$$","Charming ramen spot with a cozy vibe, serving up genuine Japanese comfort food. Enjoy tasty ramen options like Tan Tan and Black Kakuni, plus a variety of sake and shochu, all in a laid-back atmosphere.","302 E 49th St, New York, NY 10017",-73.9687182,40.7539709
"ChIJY6CJiVlZwokRUuEZJOmVFY8","ICHIRAN Ramen NY Times Square","ichiran-ramen-ny-times-square","Midtown","midtown","Ramen","ramen","Walk in Only","https://cdn.vox-cdn.com/thumbor/hgqpsRmvCu2JcJg3yE0bw4jOyEc=/0x0:5576x3718/1200x675/filters:focal(2342x1413:3234x2305)/cdn.vox-cdn.com/uploads/chorus_image/image/59095387/Ichiran_Midtown_West_15.0.jpg",1,0,1,"$$","Top-rated tonkotsu ramen spot serving up high-quality, carefully made dishes with a strong emphasis on safety and fresh ingredients. Only indoor seating, no reservations needed, and open late—even on holidays.","152 W 49th St, New York, NY 10020, USA",-73.9832897,40.7600629
"ChIJCW5gj5ZZwokRtfK4UZxkcr4","Rosemary's","rosemarys","West Village","west-village","Italian","italian","https://resy.com/cities/new-york-ny/venues/rosemarys?date=2024-07-24&seats=2","https://images.ctfassets.net/1aemqu6a6t65/7b1UeMgBYvVb6M2q51rWAu/aec58bfc39e50a6a0f27d12f67c53b03/rosemarys-west-village-manhattan-photo-courtesy-03",1,1,1,"$$","Charming Italian spot showcasing seasonal dishes using fresh rooftop garden produce. Handcrafted pasta, Spritz cocktails, and a cozy vibe with exposed brick and lush greenery. A delightful blend of rustic warmth and culinary creativity.","18 Greenwich Avenue, New York, NY 10011",-73.9998903,40.7348164
"ChIJqfd3jX9ZwokRS1hCsvCFcE8","Rosemary's East","rosemarys-east","Midtown","midtown","Italian","italian","https://resy.com/cities/new-york-ny/venues/rosemarys-east?date=2024-07-24&seats=2","https://images.squarespace-cdn.com/content/v1/5b3a3ff71aef1dfb9b909d92/1655746315480-AZRUPOTRC75BJT67THGL/Website+Rosemarys.png",1,0,1,"$$","Cozy spot at 825 Third Avenue serving hand-crafted pasta, Neapolitan pizzas, and fresh seasonal produce from McEnroe Organic Farm. It has a 100-seat dining room and a 40-seat sidewalk cafe. Perfect for family-style meals and friendly service.","350 1st Avenue, New York, NY 10010",-73.9791563,40.7350464
"ChIJ5wNF_JZZwokRdHf_CE95YJc","Osteria 57","osteria-57","West Village","west-village","Italian","italian","https://resy.com/cities/new-york-ny/venues/osteria-57?date=2024-07-25&seats=2","https://d2dzi65yjecjnt.cloudfront.net/1197482.jpeg",0,0,1,"$$$","Charming Italian spot with a one-of-a-kind menu focused on seafood and veggie options. Cozy atmosphere with a commitment to sustainability and community.","57 W 10th St, New York, NY 10011",-73.9978768,40.7346644
"ChIJDRP5JJZZwokR67scSsTR4jY","Alice","alice","West Village","west-village","Italian","italian","https://resy.com/cities/new-york-ny/venues/alice-restaurant-nyc?date=2024-07-25&seats=2","https://images.ctfassets.net/1aemqu6a6t65/1HJo6fWxYkF8WpaH3PVhu4/7f983745bc903cdd4056d072d9919d74/2-alice-rw-west-village-manhattan-nyc-courtesy-alice?w=1200&h=800&q=75",0,1,1,"$$$","A one-of-a-kind Italian eatery and seafood spot. Enjoy sustainably sourced pescatarian and vegetarian meals. The vibe is lively, paired with a classy wine and cocktail selection. All set in a chic historic brownstone.","126 W 13th St, New York, NY 10011",-73.9987031,40.7369872
"ChIJlQbeXYxZwokRnKjjqj-xmxM","Piccola Cucina Estiatorio","piccola-cucina-estiatorio","SoHo","soho","Italian","italian","https://www.opentable.com/r/piccola-cucina-estiatorio-newyork","https://dynamic-media-cdn.tripadvisor.com/media/photo-o/16/9f/fd/63/piccola-cucina-estiatorio.jpg?w=1200&h=-1&s=1",1,0,1,"$$","Cozy spot featuring fresh seafood in a Piaggio Ape, traditional favorites like arancino and pasta alla Norma, and a carefully selected wine list. Friendly vibe all around.","75 Thompson St, New York, NY 10012",-74.0030487,40.7246419
"ChIJowhlWYxZwokRgrvA8f_x8Es","Piccola Cucina Osteria Siciliana","piccola-cucina-osteria-siciliana","SoHo","soho","Italian","italian","https://www.opentable.com/r/piccola-cucina-osteria-spring-st-new-york","https://images.otstatic.com/prod1/45923938/3/huge.jpg",1,0,1,"$$","Charming spot serving genuine Sicilian fare with warm hospitality. Cozy vibe, classic Mediterranean tastes, and fresh, local ingredients crafted by Chef Philip Guardione.","75 Thompson Street, New York, NY 10012",-74.0030487,40.7246419
"ChIJZdSBiO9YwokRWADMuEN-b64","Piccola Cucina Uptown","piccola-cucina-uptown","Midtown","midtown","Italian","italian","https://www.opentable.com/r/piccola-cucina-uptown-new-york","https://images.otstatic.com/prod1/46690908/3/huge.jpg",1,1,1,"$$","Charming Italian eatery serving up fresh seafood, handmade pasta, and classic Sicilian dishes. Cozy vibe with an outdoor terrace—perfect for cozy dinners or fun gatherings.","106 E 60th St, New York, NY 10022",-73.9690372,40.7631657
"ChIJR9legAFZwokRY2BpDp3jsNc","Cipriani Dolci","cipriani-dolci","Midtown","midtown","Italian","italian","https://resy.com/cities/new-york-ny/venues/cipriani-dolci?date=2024-07-25&seats=2","https://static.wixstatic.com/media/a4d0a3_eca5ca568795493b9e85a01bb5ab18b2~mv2.jpg/v1/fill/w_560,h_340,al_c,q_80,usm_0.66_1.00_0.01,enc_auto/Dolci%202.jpg",1,1,1,"$$$","Stylish eatery with a trendy vibe and friendly service. Enjoy a great Venetian menu at good prices. The stunning decor and lively atmosphere make it a favorite for meals and post-work meetups.","89 E 42nd St, New York, NY 10017",-73.977253,40.7526943
"ChIJcWoDq4BZwokRFDtV51j09Hg","Kossar's Bagels & Bialys","kossars-bagels--bialys","Lower East Side","lower-east-side","Deli & Bagel","deli--bagel","Walk in Only","https://static.spotapps.co/website_images/ab_websites/40161_website_v1/about_img_1.jpg",1,1,0,"$","The oldest bialy bakery in the U.S. has been serving up traditional, brick oven-baked bialys and kettle-boiled bagels since 1936. Rich in Jewish heritage and made with authentic ingredients. Classic vibes with a twist.","367 Grand St, New York, NY 10002",-73.9887865,40.7164072
"ChIJCar0f49ZwokR6ozLV-dHNTE","Katz's Delicatessen","katzs-delicatessen","Lower East Side","lower-east-side","Deli & Bagel","deli--bagel","Walk in Only","https://pyxis.nymag.com/v1/imgs/47c/184/cd85eacee600f8d4624b78907d58c3210c-katzs-delicatessen-01.rsocial.w1200.jpg",1,1,1,"$$","Classic deli established in 1888. Known for hand-carved pastrami on rye, matzo ball soup, and other Jewish favorites. Old-school vibe with a deep sense of community history.","205 E Houston St, New York, NY 10002",-73.987353,40.7223431
"ChIJDaPso0ZZwokRCZ_P67ZMVMI","Russ & Daughters","russ--daughters","Lower East Side","lower-east-side","Deli & Bagel","deli--bagel","Walk in Only","https://images.squarespace-cdn.com/content/v1/56200fcee4b02025054662d7/1475948884356-LTLH08JSSIALBBH2S1J8/russ-and-daughters-the-welcome-blog",1,1,0,"$$","Iconic spot serving top-notch smoked fish, caviar, bagels, and classic Jewish dishes in a charming historic space. Tradition meets a fresh vibe at the café.","179 E Houston St, New York, NY 10002  
127 Orchard St, New York, NY 10002",NA,NA
"ChIJR_f8ggZZwokRdfXSsyN0IGU","Sarge's Delicatessen & Diner","sarges-delicatessen--diner","Midtown","midtown","Deli & Bagel","deli--bagel","Walk in Only","https://img.cdn4dd.com/cdn-cgi/image/fit=cover,width=600,height=400,format=auto,quality=80/https://doordash-static.s3.amazonaws.com/media/store/header/20644.jpg",1,1,1,"$$","Classic Jewish deli with a huge selection of homemade dishes. Enjoy house-cured pastrami and corned beef in a chill, vintage setting adorned with classic diner decor. Cozy vibes with a taste of tradition.","548 3rd Ave, New York, NY 10016",-73.9771952,40.7473351
"ChIJZyVQJONYwokREKv0a1J7bFI","Ess-a-Bagel","essabagel","Midtown","midtown","Deli & Bagel","deli--bagel","Walk in Only","https://gothammag.com/get/files/image/galleries/bagel.jpg",1,1,0,"$","Famous for its huge bagels that are crusty on the outside and soft on the inside. Each one is hand-rolled using classic Austrian techniques. They offer a variety of cream cheeses, meats, and homemade pastries. A true staple for bagel lovers in the city.","831 3rd Ave, New York, NY 10022  
108 W 32nd St, New York, NY 10001",NA,NA
"ChIJw1tqJgtZwokRqQLff0JEDQU","Ess-a-Bagel","essabagel","Gramercy Park","gramercy-park","Deli & Bagel","deli--bagel","Walk in Only","https://gothammag.com/get/files/image/galleries/bagel.jpg",0,1,0,"$","Iconic bagel shop known for its giant, hand-rolled bagels that hit the sweet spot between crunch and fluff. Offers a variety of cream cheese flavors and top-notch catering. All inspired by classic Austrian baking traditions.","324 1st Ave, New York, NY 10009",-73.9803752,40.7341032
"ChIJUQobIldbwokRVf1P1kqypSI","Ess-a-Bagel","essabagel","DUMBO","dumbo","Deli & Bagel","deli--bagel","Walk in Only","https://gothammag.com/get/files/image/galleries/bagel.jpg",1,1,0,"$$","Iconic bagel spot serving perfectly rolled, boiled, and baked bagels in a range of flavors. Indulge in creamy spreads and classic NYC sandwiches. All made with traditional techniques and top-notch ingredients.","55 Water Street, Brooklyn, NY 11201",-73.9919894,40.7035408
"ChIJEXPLsaFZwokRggZzIVKeiPM","Mission Ceviche","mission-ceviche","Upper East Side","upper-east-side","Latin American","latin-american","https://resy.com/cities/new-york-ny/venues/mission-ceviche?date=2024-07-25&seats=2","https://nypost.com/wp-content/uploads/sites/2/2022/04/220425_Yang_NYP_Features___Credit_Card_Fees___Mission_Cevic.jpg",1,1,1,"$$","Vibrant Peruvian restaurant with Chef José Luis Chavez at the helm. Enjoy fresh Nikkei-inspired ceviche, seafood, and modern Latin cuisine. Casual and eclectic vibe with creative cocktails and private event spaces.","1400 2nd Avenue, New York, NY 10021",-73.9579176,40.7692429
"ChIJP8URcY5ZwokRhFpdfNcK-FI","Sadelle's","sadelles","SoHo","soho","Deli & Bagel","deli--bagel","https://resy.com/cities/new-york-ny/venues/sadelles?date=2024-07-25&seats=2","https://media.cntraveler.com/photos/5a821cc6fc08c0430e845e4a/16:9/w_2560%2Cc_limit/Sadelles__2018_Sadelle-Restaurant.jpg",1,1,0,"$$$","A modern take on classic all-day dining. Known for a chic vibe, celebrated bagels, and a menu packed with brunch favorites, seafood, and unique dishes. All inspired by New York’s rich food scene.","463 West Broadway, New York, NY 10012",-74.000138,40.7262427
"ChIJUdr25A9ZwokR2RUc0r2dJMo","Artichoke Basille's Pizza","artichoke-basilles-pizza","Midtown","midtown","Pizza","pizza","Walk in Only","https://www.restaurantmagazine.com/wp-content/uploads/2021/05/Artichoke-Basilles-Pizza-to-Celebrate-Grand-Opening-of-New-Phoenix-Location-on-May-21.jpg",1,0,1,"$$","Fourth-gen pizzaiolos Francis Garcia and Sal Basille serve up thick, creamy slices like the signature Artichoke pizza alongside thinner Margherita options. Enjoy it all in a chill, relaxed vibe at multiple locations throughout the city.","1410 Broadway, New York, NY 10018",-73.9869019,40.7533736
"ChIJ10EpKJJZwokRUjIWaunOQbI","Artichoke Basille's Pizza","artichoke-basilles-pizza","Greenwich Village","greenwich-village","Pizza","pizza","Walk in Only","https://www.restaurantmagazine.com/wp-content/uploads/2021/05/Artichoke-Basilles-Pizza-to-Celebrate-Grand-Opening-of-New-Phoenix-Location-on-May-21.jpg",1,0,1,"$$","Relaxed pizzeria with a simple vibe, famous for its thick, creamy artichoke slices and crispy margherita options. Chill atmosphere and open late on weekends.","111 MacDougal St, New York, NY 10012",-74.0006561,40.7299487
"ChIJEWDhF55ZwokRx4atQITM9VU","Artichoke Basille's Pizza","artichoke-basilles-pizza","East Village","east-village","Pizza","pizza","Walk in Only","https://www.restaurantmagazine.com/wp-content/uploads/2021/05/Artichoke-Basilles-Pizza-to-Celebrate-Grand-Opening-of-New-Phoenix-Location-on-May-21.jpg",1,1,1,"$$","Famous for its massive, flavorful New York-style pizzas, especially the iconic Artichoke Pizza loaded with artichokes, spinach, cream sauce, and multiple cheeses. Open every day from 11 AM to 5 AM.","321 E 14th St, New York, NY 10003",-73.9838619,40.7321552
"ChIJw6TmVsdZwokRPKQwKL-ZsII","Artichoke Basille's Pizza","artichoke-basilles-pizza","Chelsea","chelsea","Pizza","pizza","Walk in Only","https://www.restaurantmagazine.com/wp-content/uploads/2021/05/Artichoke-Basilles-Pizza-to-Celebrate-Grand-Opening-of-New-Phoenix-Location-on-May-21.jpg",1,0,1,"$$","Popular pizzeria famous for its rich, creamy artichoke slice, crispy margherita, and indulgent vodka slice. High-quality ingredients served in a relaxed, lively vibe.","114 10th Ave, New York, NY 10011",-74.0065645,40.7440791
"ChIJtSV6p65bwokRWxhrRS6USqk","Artichoke Basille's Pizza","artichoke-basilles-pizza","Boerum Hill","boerum-hill","Pizza","pizza","Walk in Only","https://www.restaurantmagazine.com/wp-content/uploads/2021/05/Artichoke-Basilles-Pizza-to-Celebrate-Grand-Opening-of-New-Phoenix-Location-on-May-21.jpg",0,0,1,"$$","This popular pizza place was started by fourth-generation pizzaiolos Francis and Sal. They serve thick, creamy, and delicious pizzas that have won over both critics and local fans since opening in 2008.","59 5th Ave, Brooklyn, NY 11217",-73.9771392,40.6809284
"ChIJs8MdNo9ZwokRTPUHiArLC-o","Rubirosa","rubirosa","Little Italy","little-italy","Pizza","pizza","https://resy.com/cities/new-york-ny/venues/rubirosa?date=2024-07-25&seats=2","https://d2sygdwsqncsjz.cloudfront.net/783253-3.jpeg",1,0,1,"$$","Chic eatery serving up modern twists on Italian-American favorites. Enjoy thin crust pizza, fresh handmade pasta, and a mix of antipasto and secondi options. All in a lively, stylish atmosphere.","235 Mulberry St, New York, NY 10012",-73.9961473,40.7227175
"ChIJJShUrP5YwokRAwaeDZZccMw","Limani","limani","Midtown","midtown","Greek","greek","https://www.opentable.com/limani-nyc","https://res.cloudinary.com/gonation/image/upload/w_2500/q_auto/f_auto/v1619118745/sites/limani/DSC41171.jpg",1,0,1,"$$$","Spacious Mediterranean and Greek seafood spot with 8,000 sq. ft. of fine dining, private rooms, and outdoor seating. Focused on top-notch local and Mediterranean ingredients with a stylish island-inspired décor.","45 Rockefeller Plaza, New York, NY 10111",-73.9799569,40.7592576
"ChIJ34SOS_9YwokR7vXpNdS9tZ8","Oceana","oceana","Midtown","midtown","Seafood","seafood","https://www.opentable.com/oceana","https://images.otstatic.com/prod1/32188749/3/huge.jpg",1,0,1,"$$$$","Upscale restaurant known for creative American seafood and a wide selection of wines. Enjoy top-notch service in stylish surroundings. The menu is designed by Executive Chef Tim Jocz.","120 W 49th St, New York, NY 10020",-73.9819892,40.759986
"ChIJeSToyohZwokRVHVIMsXPIUk","Ruby's Cafe - SOHO","rubys-cafe--soho","SoHo","soho","Other","other","Walk in Only","https://media.licdn.com/dms/image/C4D1BAQEjTGLqqBawLQ/company-background_10000/0/1612205001286/rubys_cafe_cover?e=2147483647&v=beta&t=M6C0aKMgo5aaKcJvnutFsWyDI2i8LLJujyl7ocQSGGI",1,1,1,"$$","Lively cafe with a varied menu of burgers, brunch, pasta, and coffee. Loved for its cozy vibe, fresh ingredients, and outdoor seating. A go-to for casual hangouts and special celebrations.","219 Mulberry St, New York, NY 10012",-73.9962281,40.7223038
"ChIJm7ryTglZwokRsgnJB6CDMCo","Wayan","wayan","SoHo","soho","Asian","asian","https://resy.com/cities/new-york-ny/venues/wayan?date=2024-07-25&seats=2","https://assets.simpleviewinc.com/simpleview/image/upload/crm/newyorkstate/Wayan_224_3F7C1E50-93AA-4048-8D48FB7230C5F16A_763dec26-02d0-a0d8-85476466c253a698.jpg",1,1,1,"$$$","This restaurant serves Indonesian dishes with a chic French twist. The stylish space has warm teak wood, vibrant plants, and whitewashed brick, giving it a cozy vibe.","20 Spring St, New York, NY 10012",-73.995135,40.7212363
"ChIJlfNObvVZwokRYKVKPX21uOU","Mr Chow","mr-chow","Midtown East","midtown-east","Chinese","chinese","https://www.opentable.com/r/mr-chow-57th-new-york","https://d7hftxdivxxvm.cloudfront.net/?quality=80&resize_to=width&src=https%3A%2F%2Fartsy-media-uploads.s3.amazonaws.com%2FLSB7UsYPs4qGieWji1Z-wA%252F57th%2Binterior%2B2.jpg&width=450",0,0,1,"$$$$","A classic and stylish restaurant called a ""Precious Jewel Box"" by Givenchy. It offers top-notch Chinese food and has outstanding service. Enjoy genuine Beijing dishes and unique recipes in a chic setting.","324 E 57th St, New York, NY 10022",-73.9644197,40.7587671
"ChIJgWmOm_VZwokRSUIfoxNB9ng","Yves","yves","Tribeca","tribeca","French","french","https://www.opentable.com/r/yves-new-york","https://images.getbento.com/accounts/b1326df07949e7dee811201cf91a77a7/media/images/634730K5A7272-Edit-Edit.jpg?w=1000&fit=crop&auto=compress,format&h=562",0,1,1,"$$","Charming eatery with 46 seats, sleek decor, and touches of Moroccan flair. Vibrant ambiance and outdoor dining with stunning views of the Hudson. Enjoy craft cocktails and brunch with friends.","385 Greenwich St, New York, NY 10013",-74.0099615,40.7202082
"ChIJTWkuhfVZwokRS_go-fdp7Vs","Locanda Verde","locanda-verde","Tribeca","tribeca","Italian","italian","https://www.opentable.com/r/locanda-verde-new-york-2","https://www.nydailynews.com/wp-content/uploads/migration/2009/07/07/SMWY7G3VY3WUYVLSTOQOKRQPDE.jpg?w=535",1,1,1,"$$$","A lively taverna serving Chef Andrew Carmellini's heartwarming urban Italian dishes in a cozy setting. Enjoy meals from breakfast to dinner with a vibrant vibe and outdoor seating options.","377 Greenwich St, New York, NY 10013",-74.010019,40.7198779
"ChIJp0gKoClawokR0txqrcaEkFc","Jajaja Mexicana","jajaja-mexicana","Lower East Side","lower-east-side","Vegan & Vegetarian","vegan--vegetarian","https://resy.com/cities/new-york-ny/venues/jajaja-mexicana-lower-east-side?date=2024-07-27&seats=2","https://media-cdn.tripadvisor.com/media/photo-s/1d/4f/fd/8a/caption.jpg",1,1,1,"$$","Lively plant-based Mexican eatery serving up inventive meals like jackfruit carnitas and cauliflower rice. Fun cocktail options and a festive, vacation-like vibe.","162 E Broadway, New York, NY 10002",-73.9903953,40.7141557
"ChIJY1SflpRZwokRhLCM-FupOe8","Jajaja Mexicana","jajaja-mexicana","West Village","west-village","Vegan & Vegetarian","vegan--vegetarian","https://resy.com/cities/new-york-ny/venues/jajaja-mexicana-west-village?date=2024-07-27&seats=2","https://images-prod.gothamist.com/original_images/jajajawv-9.jpg",1,1,1,"$$","A colorful spot mixing Mexican taste with NYC style. Enjoy plant-based street food, a fun cocktail menu, and a lively vibe with Latin music and vacation feels.","63 Carmine St, New York, NY 10014",-74.0045465,40.7297917
"ChIJoYqcM7RZwokRY9CdI2ubMTY","Jajaja Mexicana","jajaja-mexicana","Hudson Yards","hudson-yards","Vegan & Vegetarian","vegan--vegetarian","Walk in Only","https://www.vkind.com/wp-content/uploads/2020/11/JaJaJa-Hudson-Yards-2.png",1,1,1,"$$","Charming spot serving modern, plant-based Mexican dishes like tacos, gorditas, and brunch favorites. Enjoy crafted cocktails and a wide range of tequilas, all located on the second floor of Whole Foods Market. Bright, inviting atmosphere with a lively vibe.","450 W 33rd St, New York, NY 10001",-73.9995138,40.7530239
"ChIJQSrBBv1bwokRbNfFHCnyeYI","Jajaja Mexicana","jajaja-mexicana","Williamsburg","williamsburg","Vegan & Vegetarian","vegan--vegetarian","https://resy.com/cities/new-york-ny/venues/jajaja-mexicana-williamsburg?date=2024-07-27&seats=2","https://popmenucloud.com/cdn-cgi/image/width=1920,height=1920,format=auto,fit=scale-down/mivpsofu/e2706d84-5bce-41fd-94e9-97c77764c06a.jpg",1,1,1,"$$","Colorful spot serving lively plant-based Mexican dishes like tacos and burritos, along with unique options like jackfruit carnitas. Expect a fun cocktail menu, upbeat Latino tunes, and friendly vibes, plus indoor and outdoor seating.","119 Kent Ave, Brooklyn, NY 11249",-73.961739,40.720172
"ChIJaXwp6UBbwokR1Ki9x6-BIug","The Fulton by Jean-Georges","the-fulton-by-jeangeorges","FiDi","fidi","Seafood","seafood","https://resy.com/cities/new-york-ny/venues/the-fulton-by-jean-georges?date=2024-07-21&seats=2","https://image.resy.com/3/003/2/5932/564d5dec6c08178571a7c7a2edb1df5bb48820b7/jpg/1600x1600",0,0,1,"$$$$","A seafood spot right on the water, serving seasonal dishes with a nautical vibe. Enjoy amazing views of the Brooklyn Bridge while you dine.","89 South St, New York, NY 10038",-74.0024557,40.7051819
"ChIJAyVma5JZwokRshEz41zHkHs","Bar Pitti","bar-pitti","Greenwich Village","greenwich-village","Italian","italian","Walk in Only","https://www.behindthescenesnyc.com/wp-content/uploads/2017/07/Nightlife-Bars-Bar-Pitti-West-Village.jpg",1,0,1,"$$","A lively Italian eatery with genuine regional cuisine, fresh ingredients, and classic cooking methods. Enjoy a friendly vibe, a great selection of Italian wines, and plenty of dining choices for any occasion.","268 6th Ave, New York, NY 10014",-74.0023035,40.729195
"ChIJV7QQ6kdZwokRax4615zpSGU","Le Bernardin","le-bernardin","Midtown","midtown","French","french","https://resy.com/cities/new-york-ny/venues/le-bernardin?date=2024-07-27&seats=2","https://res.cloudinary.com/the-infatuation/image/upload/v1656116808/cms/DavidALee_Le_Bernardin_Interior_001.jpg",1,0,1,"$$$$","Three-Michelin star French seafood spot serving up stunning dishes in sections like ""almost raw"" and ""lightly cooked."" The modern dining room exudes sophistication, and the wine list is top-notch, all under the guidance of Chef Eric Ripert and co-owner Maguy Le Coze.","155 W 51st St, New York, NY 10019",-73.981691,40.7613945
"ChIJQ1ZCUkRZwokRYKlkqQijGHg","Forma Pasta Factory","forma-pasta-factory","Greenpoint","greenpoint","Italian","italian","Walk in Only","https://img.cdn4dd.com/cdn-cgi/image/fit=cover,width=600,height=400,format=auto,quality=80/https://doordash-static.s3.amazonaws.com/media/store/header/273273.jpg",1,0,1,"$$","Fresh, tasty pasta dishes made daily in a relaxed, welcoming atmosphere. Cozy seating inside and out, friendly service, and a solid wine list, all at wallet-friendly prices.","14 Bedford Ave, Brooklyn, NY 11222",-73.951544,40.7237974
"ChIJBwGziqlZwokRb3MTH3xUt0Y","Tonchin NEW YORK","tonchin-new-york","Midtown","midtown","Ramen","ramen","https://resy.com/cities/new-york-ny/venues/tonchin-new-york?date=2024-07-27&seats=2","https://assets-global.website-files.com/5e58664f0ded3a1a94864e3c/5ed8adb22fd397caad09c3ac_tonchin%20HP_1.jpg",1,0,1,"$$","Stylish Japanese eatery known for homemade noodles and flavorful tonkotsu pork broth. Offers a curated menu with izakaya dishes and vegan choices, all within a roomy and inviting vibe.","13 W 36th St, New York, NY 10018",-73.9844819,40.7503151
"ChIJv_vCZ6JZwokR_2lI72wJsl0","Laut","laut","Union Square","union-square","Asian","asian","https://resy.com/cities/new-york-ny/venues/laut?date=2024-07-27&seats=2","https://res.cloudinary.com/the-infatuation/image/upload/q_auto,f_auto/NYC_LautSingapura_PRphotos_01_xvxbkc",1,1,1,"$$","Michelin-starred eatery serving up real Malaysian, Singaporean, and Thai flavors. Enjoy a mix of classic dishes like curries, noodle soups, and street food, all in a stunning Southeast Asian-inspired atmosphere.","15 East 17th Street, New York, NY 10003",-73.991051,40.7376204
"ChIJ4_kdpBBZwokR7rsYae4xCxI","Roscioli NYC","roscioli-nyc","SoHo","soho","Italian","italian","https://resy.com/cities/new-york-ny/venues/roscioli-tasting-menu?date=2024-07-27&seats=2","https://cdn.vox-cdn.com/thumbor/rnX26f1VqmbuBCG2hxnYi77LmwY=/0x0:4000x3000/1200x0/filters:focal(0x0:4000x3000):no_upscale()/cdn.vox-cdn.com/uploads/chorus_asset/file/24785049/230711_ROSCIOLI_EATER_022.jpg",0,0,1,"$$","A classic spot with two levels: an upstairs wine bar and food shop highlighting Roman dishes, and a downstairs tasting menu paired with wines in a retro supper club vibe. A perfect mix of tradition and modern flair.","43 Macdougal St, New York, NY 10012",-74.0026023,40.7277483
"ChIJp5ZUdGlZwokR9QomdJsja7A","Kebab Aur Sharab","kebab-aur-sharab","Upper West Side","upper-west-side","Indian","indian","https://resy.com/cities/new-york-ny/venues/kebab-aur-sharab?date=2024-07-27&seats=2","https://www.amny.com/wp-content/uploads/2022/12/DSC07314-HDR-scaled.jpg",0,0,1,"$$","Chic spot serving up a mix of India’s flavors. Juicy kebabs and buttery chicken steal the show. Cozy vibe and rich culinary delights await.","247 W 72nd St, Manhattan, NY 10023",-73.9832828,40.7796036
"ChIJ7yN3d6tZwokRATR9U3lAqLg","Potluck Club","potluck-club","Lower East Side","lower-east-side","Chinese","chinese","https://resy.com/cities/new-york-ny/venues/potluck-club?date=2024-07-27&seats=2","https://blog.resy.com/wp-content/uploads/2022/08/DSCF9246-2000x1125.jpg",0,1,1,"$$","This Cantonese-American spot serves up classic flavors with a fun American twist. Enjoy a lively atmosphere that makes dining an experience.","Chinatown, Lower East Side, Nolita, NY 10002",NA,NA
"ChIJgTIQRVlZwokRyaPuZMcpHF0","elNico","elnico","Williamsburg","williamsburg","Mexican","mexican","https://resy.com/cities/new-york-ny/venues/elnico-restaurant?date=2024-07-21&seats=2","https://image.resy.com/3/003/2/69006/ab2097cf3ec7a8d4e5a2922f37600a5a30d17e08/jpg/1600x1600",0,1,1,"$$","A lively rooftop spot with a creative twist on Mexican dishes by Chef Fernanda Serrano. Enjoy a varied drink menu and breathtaking views of both Brooklyn and Manhattan skylines.","288 N 8th St, Brooklyn, NY 11211",-73.9530747,40.7157572
"ChIJlWIymCBZwokRQMYxkk_fBmE","Sonnyboy","sonnyboy","Lower East Side","lower-east-side","Other","other","https://resy.com/cities/new-york-ny/venues/sonnyboy?date=2024-07-29&seats=2","https://images.getbento.com/accounts/fc65f97b5e66be9971314f77c13e05a9/media/images/2652169074DSC040081.jpg?w=1200&fit=crop&auto=compress,format&h=600",0,1,1,"$$","Chic café and wine bar with a diner-style setup. Welcoming bar area, unique brunch and dinner options, and a trendy vibe. Great for any time of day or night.","65 Rivington St, New York, NY 10002",-73.9900978,40.7205179
"ChIJ8U_F9b9ZwokRTaHyDKWRNSg","Pastis","pastis","Meatpacking","meatpacking","French","french","https://resy.com/cities/new-york-ny/venues/pastis?date=2024-07-29&seats=2","https://static01.nyt.com/images/2019/06/05/dining/04off/04off-superJumbo.jpg",1,1,1,"$$$","A beloved French bistro serving up classic dishes like moules, steak frites, and timeless desserts. Stylish space with a curved zinc bar, vintage mirrors, and a beautiful mosaic floor. Chic vibes with a cozy feel.","52 Gansevoort St, New York, NY 10014",-74.0069594,40.7392043
"ChIJ-QdPsgZfwokR2kHn-uwWJ0s","Tawa Roti Dhaulagiri Food","tawa-roti-dhaulagiri-food","Jackson Heights","jackson-heights","Asian","asian","Walk in Only","https://static01.nyt.com/images/2014/02/19/dining/20140219-HUNGRY-slide-JCCC/20140219-HUNGRY-slide-JCCC-superJumbo.jpg",1,0,1,"$","Charming family-owned spot serving up real Nepalese dishes. Enjoy traditional thalis, handmade rotis, and specialities like sukuti and butan. Known for rich flavors and warm service.","37-38 72nd St, Jackson Heights, NY 11372",-73.8939814,40.7507528
"ChIJh5G77qhfwokRQxa2rO4j0eE","Jahn’s","jahns","Jackson Heights","jackson-heights","Diner","diner","Walk in Only","https://res.cloudinary.com/the-infatuation/image/upload/c_scale,w_1200,q_auto,f_auto/images/NYC_Jahn_s_WillaMooreiPhoneContent_EDIT_01_ict179",1,1,1,"$$","A 61-year-old diner and ice cream spot known for its huge Kitchen Sink Sundae. The menu mixes classic diner dishes with Greek favorites. All served in a charming, retro vibe.","81-04 37th Ave, Queens, NY 11372",-73.8849821,40.7494368
"ChIJtSHevTz2wokR1jY59paKMww","Marlow & Sons","marlow--sons","Williamsburg","williamsburg","American","american","https://resy.com/cities/new-york-ny/venues/marlow-and-sons?date=2024-07-21&seats=2","https://image.resy.com/3/003/2/417/b135bb3a872c65cec8484111e8a2970016d685a7/jpg/1600x1600",1,1,1,"$$$","Cozy spot known for farm-fresh dishes and a rustic vibe. Enjoy a huge selection of wines and cocktails. Perfect for a charming meal in the front cafe or the intimate back room.","81 Broadway, Brooklyn, NY 11211",-73.9656975,40.7107077
"ChIJNW-_KVRZwokRxLLshZZoadQ","Trattoria One Fifth","trattoria-one-fifth","NoHo","noho","Italian","italian","https://resy.com/cities/new-york-ny/venues/one-fifth-ny?date=2024-07-29&seats=2","https://image.resy.com/3/003/2/64111/f9d1fddafd601447de317a8f2c842888add54b78/jpg/1600x1600",0,0,1,"$$","Rustic Italian spot with a rich history. Dishes inspired by Chef Marc Forgione's Italian-American roots. Fresh local ingredients in a cozy, historic setting. Perfect for a laid-back meal.","1 5th Ave, New York, NY 10003",-73.9963328,40.7319662
"ChIJSyYvYZRZwokR6tWSvOA2xXw","Fairfax","fairfax","Greenwich Village","greenwich-village","Other","other","https://resy.com/cities/new-york-ny/venues/fairfax?date=2024-07-29&seats=2","https://resy.com/cities/new-york-ny/venues/fairfax?date=2024-07-29&seats=2",1,1,1,"$$","Cozy all-day cafe and restaurant serving seasonal dishes starting at 8am. Midcentury-modern decor, a great European wine selection, and tasty Mediterranean small plates. A warm and inviting spot for any time of the day.","234 W 4th St, New York, NY 10014",-74.0031007,40.7343436
"ChIJyaTH_pRbwokRp4SVDyxdALw","Ernesto’s","ernestos","Lower East Side","lower-east-side","Other","other","https://resy.com/cities/new-york-ny/venues/ernestos?date=2024-07-29&seats=2","https://media.cntraveler.com/photos/5e595fdd17b1dc0008f2fbb5/16:9/w_2560,c_limit/Bar%20Select.jpg",0,0,1,"$$","A lively taverna with a midcentury-modern vibe and a buzzing atmosphere. The menu boasts seasonal Basque dishes perfect for sharing, plus a great selection of organic and biodynamic Spanish wines.","259 E Broadway, New York, NY 10002",-73.9854394,40.7143265
"ChIJHUrr2YdZwokR4fOebsAwpiQ","Sake No Hana","sake-no-hana","Bowery","bowery","Japanese","japanese","https://www.opentable.com/r/sake-no-hana-new-york","https://resizer.otstatic.com/v2/photos/wide-xlarge/3/50532384.webp",0,0,1,"$$$","Sake No Hana is a contemporary Japanese eatery serving stylish izakaya fare, inventive sushi, and a lively vibe. Enjoy private dining and inclusive restrooms.","145 Bowery, New York, NY 10002",-73.9941426,40.7190678
"ChIJRUXf9uBZwokR9WS3NBhSjYk","KYU NYC","kyu-nyc","NoHo","noho","Asian","asian","https://resy.com/cities/new-york-ny/venues/kyu?date=2024-07-29&seats=2","https://image.resy.com/3/003/2/64154/cd16bd1ea89d025620cddda3d0b864d5ad248c35/jpg/1600x1600",0,1,1,"$$","A wood-fired Asian-inspired spot known for tasty umami meats and creative plates like Wagyu Toast and Soft Shell Crab Bao Buns. It has a lively vibe and is often called one of the city's top restaurants.","324 Lafayette St, New York, NY 10012",-73.9951332,40.7255602
"ChIJa6MvoQdZwokRZ4gArGw2orw","Tatsuda Omakase","tatsuda-omakase","Hell's Kitchen","hells-kitchen","Sushi","sushi","https://resy.com/cities/new-york-ny/venues/tatsuda-omakase?date=2024-07-29&seats=2","https://cdn.checkle.com/venuePhotos/-Ngc635vGS8s9LEjRb5f/cb504bdf-ab85-4f7c-b75b-83f92134175b_1200x1200",1,0,1,"$$$","Chic spot serving a refined 14-course dinner Omakase for $90 and a 12-course lunch Omakase for $75. Enjoy a calm vibe with minimalist Japanese decor. Pair your meal with sake, beer, or local wines.","354 W 44th St, New York, NY 10036",-73.9911929,40.7593421
"ChIJIwqX_VBawokRu1FyN2OVoh4","Leyenda","leyenda","Boerum Hill","boerum-hill","Latin American","latin-american","https://www.leyendabk.com/reservations","https://media.cntraveler.com/photos/5d236c5cec86ec0008752aa7/16:9/w_2560,c_limit/00-NYC-2019-Leyenda_Interiors-063.jpg",0,0,1,"$$","James Beard Nominated cocktail bar and restaurant serving up a mix of creative drinks and Latin American dishes. Enjoy indoor seating or relax on the cozy back patio.","221 Smith St, Brooklyn, NY 11201",-73.9919081,40.6842709
"ChIJ1-mW-LhbwokR7Ryv5ha-gzc","Golden Diner","golden-diner","Chinatown","chinatown","Diner","diner","https://resy.com/cities/new-york-ny/venues/golden-diner?date=2024-07-30&seats=2","https://media.timeout.com/images/105545316/750/422/image.jpg",1,1,1,"$","Charming diner located under a famous bridge, serving classic New York fare with an Asian twist. A cozy spot buzzing with energy, offering beloved breakfast items like the famous green tea cake.","123 Madison St, New York, NY 10002",-73.9941166,40.7124226
"ChIJubHjIlVZwokRaiUpZRO1rgE","Dante West Village","dante-west-village","West Village","west-village","Seafood","seafood","https://resy.com/cities/new-york-ny/venues/dante-west-village?date=2024-07-30&seats=2","https://img-us.didaudo.net/us-res/000/050/50433.jpg?output=webp&fit=cover&w=800&h=600",1,1,1,"$$$","Stylish eatery serving Mediterranean-inspired cuisine and unique cocktails. Beautiful space with French decor, outdoor seating, and a vibrant local vibe.","551 Hudson Street, New York, NY 10014",-74.0062506,40.7352204
"ChIJ7cBjmSZZwokRC7PaUNOcmJ0","Mel’s","mels","Chelsea","chelsea","Pizza","pizza","https://resy.com/cities/new-york-ny/venues/mels?date=2024-07-30&seats=2","https://res.cloudinary.com/the-infatuation/image/upload/v1660938648/images/Mel_s-Disco_Pizza_Oven-Adrian_Gaut_scnltn.jpg",0,0,1,"$$","Charming wood-fired pizza spot led by Michelin-starred Chef Melissa Rodriguez. Enjoy a mix of Neapolitan and New York-style pies, plus shareable plates. Everything’s cooked over an open flame in a cozy 85-seat space with an open kitchen.","85 Tenth Ave, New York, NY 10011",-74.3436502,43.0623183
"ChIJfS6RWp1ZwokRHRCIiP-IApE","Yuca Bar","yuca-bar","Alphabet City","alphabet-city","Latin American","latin-american","https://www.opentable.com/r/yuca-bar-new-york","https://resizer.otstatic.com/v2/photos/wide-xlarge/3/55387081.webp",1,1,1,"$$","Lively Latin American eatery serving up classic and contemporary dishes, plus creative cocktails. Enjoy outdoor seating, happy hour deals, and a chill, inviting vibe.","111 Avenue A, New York, NY 10009",-73.9835939,40.7262151
"ChIJ8UxZqPxYwokRQSC7-Qoeea0","The Grill","the-grill","Midtown","midtown","Steakhouse","steakhouse","https://resy.com/cities/new-york-ny/venues/the-grill-ny?date=2024-07-21&seats=2","https://image.resy.com/3/003/2/10389/e72c0cbbb93effb88be1632bcbf7f6d824b200b8/jpg/1600x1600",1,0,1,"$$$$","Stylish American chophouse capturing the allure of 1960s Manhattan. Enjoy classic fare with attentive tableside service. A chic and sophisticated vibe attracts a fashionable crowd.","99 East 52nd Street, New York, NY 10022",-73.9720223,40.7580948
"ChIJRQqJgYVZwokRfJB16sxh1Pg","Emilio’s Ballato","emilios-ballato","NoLiTa","nolita","Italian","italian","https://www.opentable.com/r/ballatos-new-york","https://media.timeout.com/images/105700233/750/422/image.jpg",0,0,1,"$$$","A beloved local spot since 1956, this place serves up classic Italian-American comfort food in a cozy, nostalgic vibe. Famous for its simple takes on southern Italian dishes and a roster of celebrity patrons, it captures the charm of a quintessential New York City dining experience.","55 E Houston St, New York, NY 10012",-73.9945106,40.7245967
"ChIJt_HATrRbwokREfGhs1PnzwQ","Au Cheval","au-cheval","Tribeca","tribeca","American","american","https://resy.com/cities/new-york-ny/venues/au-cheval-nyc?date=2024-07-30&seats=2","https://auchevalnyc.com/wp-content/uploads/1020517.jpeg",1,1,1,"$$","Trendy diner with a classic steakhouse vibe. Think juicy cheeseburgers, prime cuts of beef, and strong cocktails. Lively and cozy atmosphere all around.","33 Cortlandt Alley, New York, NY 10013",-74.0019883,40.7180129
"ChIJ4Rw7sVhZwokRJuSZSI0jb4A","Momoya Soho","momoya-soho","SoHo","soho","Japanese","japanese","https://resy.com/cities/new-york-ny/venues/momoya-soho?date=2024-07-30&seats=2","https://image.resy.com/3/003/2/59558/eb836fc8c96bdaeac0b3064e4da626745fa8adf9/jpg/1600x1600",1,1,1,"$$","Stylish two-level space with a relaxed feel. Enjoy tranquil dining, beautifully crafted nigiri, and a handpicked assortment of French and Japanese wines and sakes. A modern twist on classic Japanese flavors.","47 Prince St, New York, NY 10012",-73.9960372,40.723245
"ChIJa7XRZbtZwokRBZtNy1-JaGE","Momoya Chelsea","momoya-chelsea","Chelsea","chelsea","Japanese","japanese","Walk in Only","https://momoyanyc.com/images/aboutus_chelsea.jpg",1,0,1,"$$","Chic sushi spot serving up classic and creative Japanese dishes like Kanpachi Jalapeno and Tuna Avocado Salad. Stunning decor creates a vibrant atmosphere. A perfect blend of style and flavor.","162 W 21st St, New York, NY 10011",-73.9963514,40.742604
"ChIJgTrKAYZYwokRrLF7JiGwdNM","Momoya Upper West","momoya-upper-west","Upper West Side","upper-west-side","Japanese","japanese","https://www.opentable.com/r/momoya-new-york-2","https://momoyanyc.com/images/aboutus2.jpg",1,0,1,"$$","This spot serves a mix of classic and creative Japanese dishes like sushi, teriyaki, and noodles. Expect a relaxed yet stylish vibe with outdoor seating available.","427 Amsterdam Ave, New York, NY 10024",-73.9773365,40.7839968
"ChIJ63L1ISRZwokRyEGTzZ0gAZM","Ma•dé","mad","NoLiTa","nolita","Seafood","seafood","https://resy.com/cities/new-york-ny/venues/ma-de-nyc?date=2024-07-21&seats=2","https://image.resy.com/3/003/2/65129/2283d54a7df45e8a56177bf228e4025ecda2e0c3/jpg/1600x1600",0,0,1,"$$$","Indonesian eatery by Chef Cédric Vongerichten, serving Padang-style dishes packed with bold flavors, coconut milk, and spicy chilies. Bright, coastal vibe with savory cocktails for a cozy, welcoming feel.","22 Spring St, New York, NY 10012",-73.9951831,40.721312
"ChIJyZdphpZZwokR0DVerrIN11c","Oak Tuscan Truffle Lounge","oak-tuscan-truffle-lounge","Greenwich Village","greenwich-village","Italian","italian","https://resy.com/cities/new-york-ny/venues/oak-tuscan-truffle-lounge?date=2024-07-30&seats=2","https://resizer.otstatic.com/v2/photos/xlarge/1/25713069.jpg",0,0,1,"$$","This spot is a culinary treasure, thanks to Rudy and Svetlana's love for truffles. The menu has truffles in every dish, showcasing Tuscan traditions and warm hospitality.","28 Greenwich Ave, New York, NY 10011",-73.9999379,40.735066
"ChIJIUM_NYVZwokRFOQZXDCXMSE","Vic’s","vics","NoHo","noho","Italian","italian","https://resy.com/cities/new-york-ny/venues/vics?date=2024-07-30&seats=2","https://image.resy.com/3/003/2/2790/2c57e57b001d46605e28f9d009aa209acdd0b831/jpg/1600x1600",0,0,1,"$$","Stylish spot serving modern Italian fare like pizza and pasta. Enjoy homemade limoncello and inventive cocktails in a relaxed, roomy setting. Perfect for a laid-back night out.","31 Great Jones St, New York, NY 10012, USA",-73.9932027,40.7269244
"ChIJF7GCEJpZwokR4z1FzAGgdVE","Ixta Cocina Mexicana + Mezcal Bar","ixta-cocina-mexicana--mezcal-bar","Bowery","bowery","Mexican","mexican","https://www.opentable.com/r/ixta-new-york","https://cdn.prod.website-files.com/633dbbd40fd3e347ca5da810/63470af2ee7d9567cf664040_IXTA%20Food%20Shoot-17.jpg",0,1,1,"$$","Trendy spot with upscale Oaxacan dishes, inventive cocktails, and a wide range of mezcal. Lively vibe with outdoor seating, brunch options, and space for private gatherings.","299 Bowery, New York, NY 10003",-73.9922194,40.7244056
"ChIJQ-hJIuBbwokRRUdquw_5w5U","L’ industrie Pizzeria","l-industrie-pizzeria","West Village","west-village","Pizza","pizza","Walk in Only","https://res.cloudinary.com/the-infatuation/image/upload/f_auto/q_auto/v1710174725/images/NYC_LIndustrieWestVillage_Interior_AlexStaniloff-1_c98bnd.jpg",1,0,1,"$","A pizzeria blending deep Italian roots with classic New York slices. Think chewy crust, crispy edges, and delicious toppings. The burrata slice is a must-try!","104 Christopher St, New York, NY 10014",-74.0049379,40.7332057
"ChIJQ-hJIuBbwokRRUdquw_5w5U","L’ Industrie Pizzeria","l-industrie-pizzeria","Williamsburg","williamsburg","Pizza","pizza","Walk in Only","https://res.cloudinary.com/the-infatuation/image/upload/v1656121738/cms/reviews/lindustrie-pizzeria/TeddyWolff.LIndustrie.InteriorsExteriors.4_fSgMPR7.jpg",1,0,1,"$","Popular hotspot for traditional Italian and creative pizza, serving wood-fired pies, burrata slices, and gelato. Founded by a Tuscany native, it mixes Italian cooking with New York vibes.","254 S 2nd St, Brooklyn, NY 11211",-73.9578261,40.7116097
"ChIJuTqCVatZwokRaaU3zsRuw98","Wolfgang's Steakhouse","wolfgangs-steakhouse","Theater District/Times Square","theater-districttimes-square","Steakhouse","steakhouse","https://www.opentable.com/wolfgangs-steak-house-times-square","https://media-cdn.tripadvisor.com/media/photo-p/18/86/fb/3d/54.jpg",1,0,1,"$$$$","Casual-elegant steakhouse serving U.S.D.A prime, dry-aged steaks, seafood, and quality wines. Smart casual dress code, semi-private rooms, and outdoor seating are perfect for groups and special events.","250 W 41st St, New York, NY 10018",-73.9889405,40.755909
"ChIJuTqCVatZwokRaaU3zsRuw98","Wolfgang's Steakhouse Broadway","wolfgangs-steakhouse-broadway","Midtown","midtown","Steakhouse","steakhouse","https://www.opentable.com/r/wolfgangs-steakhouse-broadway-37th-st-new-york","https://resizer.otstatic.com/v2/photos/wide-xlarge/2/63650945.webp",1,0,1,"$$$$","This famous steakhouse is celebrated for its 28-day dry-aged steaks, especially the Porterhouse. The elegant décor features Brazilian cherry wood floors and alabaster chandeliers. It’s a classy spot for a great meal.","1359 Broadway Ave, New York, NY 10018, USA",-73.0686367,40.7972168
"ChIJ7cmhqPVZwokRcWzLzM5e-5A","Wolfgang's Steakhouse","wolfgangs-steakhouse","Tribeca","tribeca","Steakhouse","steakhouse","https://www.opentable.com/wolfgangs-steakhouse-tribeca?ref=1068","https://resizer.otstatic.com/v2/photos/wide-xlarge/2/58333777.webp",1,0,1,"$$$$","Casual-elegant steakhouse serving prime steaks, fresh seafood, and fine wines. Established by ex-headwaiter Wolfgang Zwiener, it’s famous for outstanding service and top-notch meals.","409 Greenwich St, New York, NY 10013",-74.0097607,40.7211681
"ChIJqWOfDa9ZwokR8S9r58dyv5Y","Cadence","cadence","Alphabet City","alphabet-city","American","american","https://resy.com/cities/new-york-ny/venues/cadence?date=2024-07-30&seats=2","https://image.resy.com/3/003/2/42578/6c22267ae4daf7432a9e8ddae2e5fa96436fa76e/jpg/1600x1600",0,0,1,"$$","This trendy plant-based soul food spot by Executive Chef Shenarri Freeman serves up vegan Southern favorites and creative dishes. Stylish décor with marble and emerald green vibes. Pure culinary delight.","111 E 7th St, New York, NY 10009",-73.9844957,40.7266382
"ChIJV6G4us9fwokRy4GOF89i6nE","Hamida Seafood","hamida-seafood","Astoria","astoria","Seafood","seafood","Walk in Only","https://static01.nyt.com/images/2020/03/04/dining/04Hungry-Hamido-B/merlin_169430793_d4d464a4-7112-4740-853e-be94513a59da-articleLarge.jpg?quality=75&auto=webp&disable=upscale",1,0,1,"$$","This family-run Egyptian seafood spot lets you pick your fresh fish right from the counter. You also choose how it’s cooked, with plenty of sides to go with it. It’s a one-of-a-kind dining experience!","3308 Ditmars Blvd, Queens, NY 11105",-73.9094624,40.77507
"ChIJIXPGRZtZwokRlob1QzvXcO4","Electric lemon","electric-lemon","Hudson Yards","hudson-yards","American","american","https://resy.com/cities/new-york-ny/venues/electric-lemon?date=2024-07-30&seats=2","https://electriclemonnyc.com/wp-content/uploads/sites/40/2019/11/electriclemon_highres-20.jpg",1,1,1,"$$$","Stylish eatery on the 24th floor with a modern dining room. Enjoy seasonal American dishes made from fresh Mid-Atlantic ingredients. Chill on the peaceful outdoor terrace with amazing views of the city and the Hudson River.","33 Hudson Yards, 24th Floor, New York, NY 10001",NA,NA
"ChIJOTob_r1bwokRtUoNNbcmw_g","Speedy Romeo","speedy-romeo","Clinton Hill","clinton-hill","Pizza","pizza","https://resy.com/cities/new-york-ny/venues/speedy-romeo-bk?date=2024-07-30&seats=2","https://static01.nyt.com/images/2012/04/11/dining/20120411-SPEEDY-slide-ZO59/20120411-SPEEDY-slide-ZO59-jumbo.jpg",1,1,1,"$$","This lively spot has been revamped from an old auto parts shop. It serves neo-Neapolitan and St. Louis-style pizzas, alongside Italian-inspired seasonal American dishes. The natural wine selection is extensive, all set in a kitschy yet modern vibe. Perfect blend of fun and flavor.","376 Classon Ave, Brooklyn, NY 11238",-73.9600157,40.6874685
"ChIJ__-_rdH1wokRph5JCGj8aGQ","Zona De Cuba","zona-de-cuba","South Bronx","south-bronx","Latin American","latin-american","https://www.opentable.com/r/zona-de-cuba-bronx","https://resizer.otstatic.com/v2/photos/wide-xlarge/2/26412714.webp",0,1,1,"$$","Rooftop spot serving up real Cuban food, live Afro-Cuban jazz, and a lively vibe inspired by Havana. Think baroque decor and plenty of greenery for a tropical feel.","558 Grand Concourse, Bronx, NY 10451",-73.9264891,40.8190388
"ChIJ61xsAEVbwokRS6GWvuAq5U0","Yunnan Rice Noodle House","yunnan-rice-noodle-house","Chinatown","chinatown","Chinese","chinese","Walk in Only","https://apis3.fantuan.ca/image/publicimage_image_1648507990.821124.png",1,0,1,"$","Authentic Asian eatery serving up tasty rice noodles and hearty soups. Generous portions and quality ingredients make for a laid-back and fulfilling meal.","53 Bayard St, New York, NY 10013, USA",-73.9977223,40.7151432
"ChIJ_eNEOLhZwokRqAfR9OaMay0","Empire Diner","empire-diner","Chelsea","chelsea","Diner","diner","https://resy.com/cities/new-york-ny/venues/empire-diner-nyc?date=2024-07-21&seats=2","https://image.resy.com/3/003/2/52909/903e4d79ec412a4d2735734083de7fe7aed415b9/jpg/1600x1600",1,1,1,"$$","A retro-modern spot with a classic Art Deco façade, this diner has been around since 1976. It offers elevated American dishes and skillfully made cocktails in a stylish, nostalgic vibe.","210 10th Ave, New York, NY 10011",-74.0043111,40.7471834
"ChIJ-bhM6yL2wokRAtIoWi_TL2k","Melba's Restaurant","melbas-restaurant","Harlem","harlem","American","american","https://www.opentable.com/r/melbas-new-york","https://cdn.vox-cdn.com/thumbor/lcYC9nFnqI3GPTfrZstKf6AZnCw=/0x0:1024x683/1200x675/filters:focal(664x180:826x342)/cdn.vox-cdn.com/uploads/chorus_image/image/73165034/IMG_5448_PC_Anthony_Jones.0.jpeg",1,1,1,"$$","Charming retro spot dishing out Southern favorites like fried chicken, eggnog waffles, and fruit cobbler. Cozy atmosphere that captures the local vibe perfectly.","300 W 114th St, New York, NY 10026",-73.9566824,40.8031588
"ChIJb7CqrvpZwokRFeC0MqXi7ys","Cafe Carmellini","cafe-carmellini","NoMad","nomad","Italian","italian","https://resy.com/cities/new-york-ny/venues/cafe-carmellini?date=2024-07-30&seats=2","https://static01.nyt.com/images/2024/02/07/multimedia/07rest-carmellini1-qlhb/06rest-carmellini1-qlhb-articleLarge.jpg?quality=75&auto=webp&disable=upscale",0,0,1,"$$$","This stylish restaurant by a James Beard Award-winning chef serves a fresh mix of French and Italian dishes. Housed in a beautifully transformed neoclassical building, the space boasts lush maximalist decor.","250 5th Ave, New York, NY 10001, USA",-73.9873997,40.7448454
"ChIJBfDVuAVZwokRjNRasFnJr5E","Montagu’s Gusto","montagus-gusto","Murray Hill","murray-hill","Deli & Bagel","deli--bagel","Walk in Only","https://encrypted-tbn0.gstatic.com/images?q=tbn:ANd9GcQL5so81V2JMMuLpacB4Zh9V7wNihBUZuTTkA&usqp=CAU",1,1,1,"$","Charming artisan eatery with a warm vibe. Serves fresh, organic, locally sourced meals all day, from breakfast to dinner. The menu blends global flavors in healthy, sustainable dishes, made fresh for a unique experience.","645 2nd Ave, New York, NY 10016",-73.9755056,40.7457025
"ChIJPSb0duFZwokR1kKMyJ7x38E","Dunhuang","dunhuang","Murray Hill","murray-hill","Chinese","chinese","Walk in Only","https://jerseydigs.com/wp-content/uploads/2023/06/dunhuang-jersey-city-opening.jpg",1,0,1,"$$","Authentic Northwestern Chinese food with hand-pulled noodle soups, cumin-spiced lamb, and hearty beef noodle bowls. Cozy vibes and bold flavors in Manhattan.","320 Lexington Ave, New York, NY 10016",-73.9779414,40.7492548
"ChIJ8dxLTj1awokRcLagjGlwyHc","Hole in the Wall","hole-in-the-wall","Murray Hill","murray-hill","Other","other","https://resy.com/cities/new-york-ny/venues/hole-in-the-wall-murray-hill?date=2024-07-31&seats=2","https://www.tagvenue.com/resize/1b/e4/fit-535-358;31550-whole-venue-room-enhanced-v1-1326369.jpeg",1,1,1,"$$","Waterside spot serving Aussie-inspired brunch, unique dinner options, specialty brews, inventive cocktails, and a great wine selection. All with a view of the East River.","445 E 35th St, New York, NY 10016",-73.9723584,40.7442668
"ChIJW2pKVaJZwokR1NyxT_kGsOY","Hole in the Wall","hole-in-the-wall","Flatiron","flatiron","Other","other","https://resy.com/cities/new-york-ny/venues/hole-in-the-wall-flatiron?date=2024-07-31&seats=2","https://images.squarespace-cdn.com/content/v1/61e0b03673032e681ff314c3/3fa4a001-d20f-41fd-9545-6378a41f9c34/DSC06992.jpg",1,1,1,"$$","A flexible spot for laid-back breakfast and dinner, complete with a covered deck. The menu boasts stunningly presented dishes inspired by global flavors and Mediterranean cooking. Perfect blend of style and comfort.","37 W 24th St, New York, NY 10010",-73.9908672,40.7432132
"ChIJQSrBBv1bwokRbNfFHCnyeYI","Hole in the Wall","hole-in-the-wall","Williamsburg","williamsburg","Other","other","https://resy.com/cities/new-york-ny/venues/hole-in-the-wall-williamsburg?date=2024-07-31&seats=2","https://images.squarespace-cdn.com/content/v1/61e0b03673032e681ff314c3/a36295e1-b1ab-4456-b873-cb3ae883a4fd/210430_PHG_HoleintheWallBK_0070.jpg",1,1,1,"$$","Australian-inspired café-restaurant serving up specialty coffee and beloved brunch dishes. Seasonal dinner options available, plus a great selection of wines and cocktails. Enjoy cozy indoor seating or relax outside.","292 Bedford Ave, Brooklyn, NY 11249",-73.9615198,40.7143727
"ChIJB8iKMxhawokRs5oRixSsKwA","Hole in the Wall","hole-in-the-wall","FiDi","fidi","Other","other","Walk in Only","https://images.squarespace-cdn.com/content/v1/61e0b03673032e681ff314c3/8c61decb-878f-4b1a-bcb2-8128056a1b97/cliff2.jpeg?format=1500w",1,1,1,"$$","Relaxed Aussie cafe serving seasonal dishes, creative cocktails, and top-notch coffee. A cozy spot with a welcoming vibe, ideal for business lunches, brunch with friends, or small gatherings.","15 Cliff St, New York, NY 10038",-74.0056635,40.7084296
"ChIJtxeOqXdbwokRa1M5fa8HJXE","Next Stop Vegan","next-stop-vegan","Brooklyn Heights","brooklyn-heights","Vegan & Vegetarian","vegan--vegetarian","Walk in Only","https://i0.wp.com/greenpointers.com/app/uploads/2024/06/79B612E5-0D9C-479C-9C17-7C4802C6FF5E.jpg?fit=2000%2C2000&ssl=1",1,0,0,"$$","Charming spot serving tasty, mindful plant-based meals that mix comfort food with bold flavors. Enjoy dishes like arroz con gandules, loaded fries, and sancocho, all made with top-notch vegan ingredients. Relaxed vibe with a fresh twist.","88 Livingston St, Brooklyn, NY 11201",-73.9906891,40.691228
"ChIJK48-E51ZwokRvAA-v6fx9y0","Cafe Mogador","cafe-mogador","East Village","east-village","Mediterranean","mediterranean","https://resy.com/cities/new-york-ny/venues/cafe-mogador-east-village?date=2024-07-31&seats=2","https://s.wsj.net/public/resources/images/OB-KQ404_1029lb_H_20101029110408.jpg",1,1,1,"$$","Family-owned Moroccan and Middle Eastern eatery serving up a chill vibe, tasty tagines, and a popular brunch. A mix of classic dishes and vibrant cultural energy.","101 St Marks Pl, New York, NY 10009",-73.9843381,40.7274166
"ChIJQSrBBv1bwokRbNfFHCnyeYI","Cafe Mogador","cafe-mogador","Williamsburg","williamsburg","Mediterranean","mediterranean","https://resy.com/cities/new-york-ny/venues/cafe-mogador-williamsburg?date=2024-07-31&seats=2","https://travelfoodpeople.com/wp-content/uploads/2020/06/image-asset-892.jpeg",1,1,1,"$$","Family-owned spot with Moroccan flair, since 1983. Think braised tagines, homemade pitas, and creative dishes. Known for an award-winning brunch and a warm, cultural vibe.","133 Wythe Avenue, Brooklyn, NY 11249",-73.9599626,40.7197307
"ChIJM2NCGJ1ZwokRA2nCkZcz08g","MàLá Project - 53rd st","ml-project--53rd-st","Midtown East","midtown-east","Chinese","chinese","https://resy.com/cities/new-york-ny/venues/mala-project?date=2024-07-31&seats=2","https://cdn.vox-cdn.com/thumbor/6zEr5xHb8k5CM3HupPHk-g65TpM=/0x0:4032x3024/1200x800/filters:focal(1694x1190:2338x1834)/cdn.vox-cdn.com/uploads/chorus_image/image/58694637/IMG_2093.0.jpg",1,0,1,"$$","This Michelin Bib Gourmand spot serves up customizable Sichuan dry pot and classic dishes. Enjoy a lively, communal vibe and endless flavors to mix and match.","245 E 53rd St, Manhattan, NY 10022",-73.9683209,40.7573466
"ChIJM2NCGJ1ZwokRA2nCkZcz08g","MàLá Project - Greenpoint","ml-project--greenpoint","Greenpoint","greenpoint","Chinese","chinese","https://resy.com/cities/new-york-ny/venues/mala-project-greenpoint?date=2024-07-31&seats=2","https://interiordesign.net/wp-content/uploads/2023/09/Interior-Design-LOVEISENOUGH-MaLa-Project-LOVEISENOUGH-Mala-Project4039.jpg",1,0,1,"$$","This Michelin Bib Gourmand Chinese spot is all about Sichuan dry pot. You can mix and match meats, seafood, and veggies, all stir-fried in Chef Zhao’s special MàLà Sauce. Simple, bold flavors with a twist!","603 Manhattan Ave, Brooklyn, NY 11222",-73.950763,40.723159
"ChIJcWoDq4BZwokRFDtV51j09Hg","Kossar's Bagels & Bialys","kossars-bagels--bialys","Upper East Side","upper-east-side","Deli & Bagel","deli--bagel","Walk in Only","https://static.spotapps.co/website_images/ab_websites/40161_website_v1/about_img_1.jpg",1,1,0,"$","Iconic bakery known since 1936 for its brick oven-baked bialys and kettle-boiled bagels. Authentic Jewish specialty breads with a rich cultural background.","1409 York Ave, New York, NY 10021",-73.9525187,40.768995
"ChIJcWoDq4BZwokRFDtV51j09Hg","Kossar's Bagels & Bialys","kossars-bagels--bialys","Hudson Yards","hudson-yards","Deli & Bagel","deli--bagel","Walk in Only","https://goldbelly.imgix.net/uploads/showcase_media_asset/image/161587/Kossars-Famous-bagels-dozen-product-8.jpg?ixlib=rails-3.0.2",1,1,0,"$$","Historic bakery since 1936, known for its brick oven-baked bialys and kettle-boiled bagels. Made with top-notch ingredients, it upholds the tradition of Jewish ethnic specialties from the Lower East Side.","536 W 30th St, New York, NY 10001",-74.0027238,40.7528895
"ChIJDaPso0ZZwokRCZ_P67ZMVMI","Russ & Daughters","russ--daughters","Hudson Yards","hudson-yards","Deli & Bagel","deli--bagel","Walk in Only","https://images.squarespace-cdn.com/content/v1/57be0600e3df288b8ce9492a/49c2c6ca-782a-4cd8-8588-c9600db75898/downsized.jpg",1,1,0,"$$","Russ & Daughters at Hudson Yards is a 4,500-square-foot spot with a glass bakery, a tasty counter, a caviar and champagne station, and casual self-service dining. It's all about celebrating rich culinary traditions.","502 W 34th St, New York, NY 10001",-73.9993902,40.754595
"ChIJDaPso0ZZwokRCZ_P67ZMVMI","Russ & Daughters Cafe","russ--daughters-cafe","Lower East Side","lower-east-side","American","american","Walk in Only","https://images.squarespace-cdn.com/content/v1/57be0600e3df288b8ce9492a/1480745105578-IAX2J3EG5ODYOD91MF6O/Shop+Storefront",1,1,0,"$$","Cozy café serving Jewish comfort food with smoked fish, bagels, and classic dishes. A charming spot that celebrates a century of delicious family tradition.","127 Orchard Street, New York, NY 10002",-73.9895629,40.7196388
"ChIJgTDgQh1cwokRAigCV_DOCQ8","Artichoke Basille's Pizza","artichoke-basilles-pizza","Bushwick","bushwick","Pizza","pizza","Walk in Only","https://qns.com/wp-content/uploads/2015/05/IMG_4641.jpg",1,1,1,"$$","A well-loved pizza joint run by fourth-generation pizzaiolos, serving up thick, crispy slices with a mix of creative flavors. Open daily from 11AM to 4AM.","18 Wyckoff Ave, Brooklyn, NY 11237",-73.9228419,40.7064078
"ChIJTwH7JrNZwokRbyg6mhXQSOo","Ruby's Cafe - West Village","rubys-cafe--west-village","West Village","west-village","Other","other","https://www.opentable.com/r/little-rubys-cafe-west-village-new-york","https://media.licdn.com/dms/image/D4E22AQGOtB6RSMpsew/feedshare-shrink_800/0/1699550800671?e=2147483647&v=beta&t=GRbyGNCVghyC3bI1X6tYkJbgYzqp7nBxL-hQfTt6K4E",1,1,1,"$$","This Australian all-day cafe sits at the corner of West 4th St. and 7th Avenue. It boasts a bright, open space with exclusive cocktails and a menu that fuses Australian and American flavors. There’s also a spacious terrace for outdoor dining.","225 W 4th St, New York, NY 10014",-74.0027914,40.7340693
"ChIJK5v5ighZwokROtdIRyEVYSM","Ruby's Cafe - Murray Hill","rubys-cafe--murray-hill","Murray Hill","murray-hill","Other","other","https://www.opentable.com/r/little-rubys-cafe-murray-hill-new-york","https://images.getbento.com/accounts/b1463c771efd7f54f15c8c2371390f1f/media/images/80201IMG_0315.jpg?w=1200&fit=crop&auto=compress,format&crop=focalpoint&fp-x=0.5&fp-y=0.37",1,1,1,"$$","Charming and laid-back spot serving up Australian and American dishes. Don't miss the signature Bronte burger, brunch favorites, and special drinks. Enjoy a lively vibe and outdoor seating, all while being dog-friendly. Open daily from 9am to 10:30pm.","442 3rd Ave, New York, NY 10016",-73.9798913,40.7436191
"ChIJ-V7NLMxZwokRwWqYU9xL8tQ","Ruby's Cafe - East Village","rubys-cafe--east-village","East Village","east-village","Other","other","https://www.opentable.com/r/little-rubys-cafe-east-village-new-york","https://images.getbento.com/accounts/b1463c771efd7f54f15c8c2371390f1f/media/images/89796Rubys_East_Village_01302023_FINALS-10.jpg?w=1200&fit=crop&auto=compress,format&crop=focalpoint&fp-x=0.5&fp-y=0.63",1,1,1,"$$","Casual Aussie-inspired cafe with a cozy vibe. Enjoy fresh, home-cooked meals like the famous Bronte burger and ricotta hotcakes. Relaxed atmosphere with outdoor seating and delivery options available.","198 E 11th St, New York, NY 10003",-73.988807,40.731311
"ChIJlfNObvVZwokRYKVKPX21uOU","Mr Chow","mr-chow","Tribeca","tribeca","Chinese","chinese","https://www.opentable.com/r/mr-chow-tribeca-new-york","https://images.otstatic.com/prod/25920755/1/huge.jpg",0,0,1,"$$$","Trendy spot drawing in A-listers from music, art, and fashion. The sleek black and white dining area showcases works by Julian Schnabel and Andy Warhol. Enjoy authentic Beijing dishes, including the famous Peking Duck.","121 Hudson St, New York, NY 10013",-74.008725,40.7197723
"ChIJaVgbdR9awokRqxIwG9AywT4","Takahachi","takahachi","Tribeca","tribeca","Sushi","sushi","Walk in Only","https://d3rg18dos0rgue.cloudfront.net/wp-content/uploads/2018/04/08234341/takahachi.jpg",1,0,1,"$$","Chill, affordable sushi spot with a touch of class. Serves up inventive rolls and great home-style Japanese dishes. Good bang for your buck, with fish said to come from the same supplier as a famous restaurant.","145 Duane St, New York, NY 10013",-74.00793,40.7165822
"ChIJwUcmtIJZwokRID_0WLBoqgU","Takahachi","takahachi","Alphabet City","alphabet-city","Sushi","sushi","Walk in Only","https://res.cloudinary.com/the-infatuation/image/upload/c_scale,w_1200,q_auto,f_auto/cms/media/reviews/takahachi/banners/Takahachi-East-Village_0",0,0,1,"$$","Chill and budget-friendly spot serving fresh sushi and sashimi alongside comforting home-style dishes. Enjoy a casual vibe, welcoming staff, and inventive options like wild shrimp tempura and tiger rolls.","85 Avenue A, New York, NY 10009",-73.9844468,40.7253267
"ChIJn-PPbBRawokR3o5lQeBaB_w","Fraunces Tavern","fraunces-tavern","FiDi","fidi","American","american","https://www.opentable.com/fraunces-tavern-the-porterhouse-brewing-co","https://resizer.otstatic.com/v2/photos/wide-xlarge/3/52116691.webp",1,0,1,"$$","This historic spot dates back to 1719 and has a fascinating Revolutionary War past. It boasts several dining and drinking spaces for a great experience. A true slice of the city’s rich history.","54 Pearl Street, New York, NY 10004",-74.0113353,40.7033938
"ChIJnQLwRJRYwokRAok9jZJTLrY","The Mark Restaurant by Jean-Georges","the-mark-restaurant-by-jeangeorges","Upper East Side","upper-east-side","American","american","https://resy.com/cities/new-york-ny/venues/the-mark-restaurant-by-jean-georges?date=2024-07-31&seats=2","https://image.resy.com/3/003/2/10150/8c38b009c82720e365bca3768cacc979f5273c4a/jpg/1600x1600",1,1,1,"$$$$","A stylish restaurant in a luxury hotel serving delightful European favorites with a twist of global flavors. Elegant dining areas, outdoor seating, and crafted cocktails create a sophisticated vibe. Close to Central Park and the Met.","25 E 77th St, New York, NY 10075",-73.9632594,40.7753299
"ChIJcYTj9gFbwokRkvKKMQFaObo","Forma Pasta Factory","forma-pasta-factory","Clinton Hill","clinton-hill","Italian","italian","Walk in Only","https://s3-media0.fl.yelpcdn.com/bphoto/3wd2FyDQuLX6PEFc91jRpQ/348s.jpg",1,0,1,"$$","Chill spot crafting fresh, custom pasta right on-site. Watch the pasta being made in an open kitchen while savoring beautifully made dishes at great prices.","5 Greene Avenue, Brooklyn, NY 11238",-73.9731326,40.6860364
"ChIJVQw7S69ZwokRxkRkuFLa494","Tonchin BROOKLYN","tonchin-brooklyn","Williamsburg","williamsburg","Ramen","ramen","https://resy.com/cities/new-york-ny/venues/tonchin-brooklyn?date=2024-07-31&seats=2","https://cdn.prod.website-files.com/64f271c1bc251cc492d7f271/64f2ab50e2aee8c57e4c218b_TonchinBrooklyn_1_2044_websize.jpg",0,0,1,"$$","Contemporary Japanese eatery blending classic tastes with a fresh spin. Enjoy house-made noodles, rich Tokyo Tonkotsu broth, and a selection of natural wines. A friendly spot perfect for get-togethers and tasty bites.","109 N 3rd St, Brooklyn, NY 11249",-73.9617324,40.7168274
"ChIJv_vCZ6JZwokR_2lI72wJsl0","Singapura","singapura","Gramercy Park","gramercy-park","Asian","asian","Walk in Only","https://lh3.googleusercontent.com/p/AF1QipP7aLQB1cWfm5bCsXnoT-SdTTv4ZRjNdcxxpsWj=s680-w680-h510",1,0,1,"$$","Lively spot serving genuine Singaporean dishes, led by chef Salil Mehta. Bright decor and tasty flavors influenced by Southeast Asian culture. Busy vibe that captures the spirit of Singapore's street food scene.","31 E 20th St, New York, NY 10003",-73.9888916,40.739043
"ChIJUQ32B_hZwokRCGKUYsNx8hU","Kebaya","kebaya","Union Square","union-square","Asian","asian","Walk in Only","https://kebayanyc.com/images/gallery/2.jpg",0,0,1,"$$","The city's first spot for Peranakan cuisine serves up a colorful mix of Chinese, Malay, and Indonesian flavors. Think classic dishes with a modern flair and creative Southeast Asian cocktails.","20 E 17th St, New York, NY 10003",-73.9912341,40.73727
"ChIJo9XHFIJZwokRg2A7E7I7INE","Wau","wau","Upper West Side","upper-west-side","Asian","asian","https://resy.com/cities/new-york-ny/venues/wau-restaurant?date=2024-07-31&seats=2","https://axwwgrkdco.cloudimg.io/v7/__gmpics3__/5f8b68fec06d4cbdbe2704fc4ba6c2bd.jpg",1,1,1,"$$","Wau serves up classic Southeast Asian dishes from Indonesia, Malaysia, Singapore, and Thailand. Enjoy family-style meals and relax on the enclosed outdoor patio. It’s a friendly spot that highlights local flavors and cultures.","434 Amsterdam Ave, New York, NY 10024",-73.9776143,40.7844415
"ChIJx-Yt5lNYwokRzwFhNuRwCwQ","Sake Bar Hagi","sake-bar-hagi","Hell's Kitchen","hells-kitchen","Japanese","japanese","https://www.opentable.com/r/sake-bar-hagi-46","https://resizer.otstatic.com/v2/photos/wide-xlarge/1/25153153.webp",0,0,1,"$$","Cozy Japanese izakaya that’s been a local gem since 1985, serving up tasty tapas, yakitori, sushi, and other Japanese treats in a basement vibe. Authentic flavors in a laid-back setting.","245 W 51st St, New York, NY 10019",-73.9848749,40.7627881
"ChIJv8QjUXlfwokRpKqn4BGOC-I","Sake Kawa","sake-kawa","Astoria","astoria","Japanese","japanese","https://www.opentable.com/r/sake-kawa-astoria","https://s3-media0.fl.yelpcdn.com/bphoto/PNmGwB_PBcHIA_6_fSmkgA/o.jpg",1,0,1,"$$","This spot serves up real Japanese cuisine in a cozy, stylish setting. Enjoy attentive service and a menu packed with fresh sushi, ramen, and tempura, using fish from local and global waters.","32-05 36th Ave, Astoria, NY 11106, USA",NA,NA
"ChIJucCLBkRbwokRctf7F9azpPo","Saketumi Asian Bistro","saketumi-asian-bistro","Brooklyn Heights","brooklyn-heights","Japanese","japanese","Walk in Only","https://ik.imagekit.io/awwybhhmo/satellite_images/japanese/red/hero/8.jpg?tr=w-2048",1,0,1,"$$","Trendy spot with a varied menu of sushi, Chinese, and Thai dishes. Fresh ingredients and authentic spices create amazing flavors. Enjoy a cozy vibe with friendly service.","118 Montague St, Brooklyn, NY 11201",-73.9947615,40.6947239
"ChIJPfSN0VpZwokRyqr6M5SqiYk","KYURAMEN","kyuramen","Union Square","union-square","Japanese","japanese","Walk in Only","https://static.wixstatic.com/media/ac2bd4_87653487861b43d081539f36268c573a~mv2.jpg/v1/fill/w_1512,h_1104,al_c,q_85,usm_0.66_1.00_0.01,enc_auto/ac2bd4_87653487861b43d081539f36268c573a~mv2.jpg",1,0,1,"$$","This ramen spot offers expertly made dishes by skilled chefs that highlight the true spirit of Japanese ramen. Enjoy a range of rich broth options and classic flavors in a lively atmosphere.","210 E 14th St, New York, NY 10003, USA",-73.9867736,40.7328522
"ChIJO8_KyN9ZwokR98VtWjlBKG4","Cecconi's NoMad","cecconis-nomad","NoMad","nomad","Italian","italian","https://www.opentable.com/r/cecconis-at-the-ned-nomad-new-york","https://resizer.otstatic.com/v2/photos/xlarge/2/49216835.webp",1,1,1,"$$$","A modern Italian eatery in a historic building, serving hand-made pasta, wood-fired pizza, and Northern Italian cuisine. Think classic yet stylish vibes with navy velvet seating, golden-yellow leather chairs, and a sleek wooden bar. Open to the public, but members and hotel guests need to book ahead.","1170 Broadway, New York, NY 10001",-73.988596,40.7449246
"ChIJ87qt5hhawokRfDHmVxCxPJY","CUT by Wolfgang Puck","cut-by-wolfgang-puck","Tribeca","tribeca","Steakhouse","steakhouse","https://www.opentable.com/r/cut-by-wolfgang-puck-at-fs-downtown-new-york","https://resizer.otstatic.com/v2/photos/xlarge/2/52089553.webp",1,0,1,"$$$$","CUT by Wolfgang Puck is an upscale steakhouse in a luxury hotel. It offers high-end dining with fresh, local ingredients. The space has a chic, theatrical vibe. Perfect for celebrities, locals, and business diners.","99 Church St, New York, NY 10007",-74.009244,40.713108
NA,"Semma","semma","West Village","west-village","Indian","indian","https://resy.com/cities/new-york-ny/venues/semma?date=2024-08-30&seats=2","https://resy.com/cities/new-york-ny/venues/semma?date=2024-08-30&seats=2",0,0,1,"$$","Michelin-starred spot serving up genuine South Indian dishes, crafted by Chef Vijay Kumar. The menu bursts with rich flavors and local ingredients, all set against decor inspired by Kerala.","60 Greenwich Ave, New York, NY 10011",-74.000689,40.736072
NA,"Centurion NY","centurion-ny","Midtown East","midtown-east","French","french","https://resy.com/cities/new-york-ny/venues/centurion-ny?date=2024-08-30&seats=2","https://thepointsguy.global.ssl.fastly.net/us/originals/2023/03/Centurion-New-York-American-Express-Zach-Griff-12-1001.jpg",1,0,1,"$$$","Elevated dining on the 55th floor, created by a Michelin-star chef. Amazing city views, a wine vault, and special perks for Centurion cardholders. Sophisticated vibe with a touch of exclusivity.","1 Vanderbilt Avenue, New York, NY 10017",-73.9785423,40.7529718
NA,"Jōji","jji","Midtown","midtown","Sushi","sushi","https://resy.com/cities/new-york-ny/venues/joji?date=2024-09-07&seats=2","https://image.resy.com/3/003/2/62836/92407dc5c89fcb0c0e14dad32d4dbd0e7ba7253c/jpg/1600x1600",1,0,1,"$$$$","Tucked away in a cozy spot, this place features a 22-course omakase menu in a calm, Japanese-inspired setting. Under the guidance of two talented chefs, it promises a unique and sophisticated dining experience.","1 Vanderbilt Ave, New York, NY 10017",-73.9785423,40.7529718
NA,"Nonna Dora's","nonna-doras","Midtown East","midtown-east","Italian","italian","https://resy.com/cities/new-york-ny/venues/nonna-doras?date=2024-09-07&seats=2","https://static01.nyt.com/images/2022/05/18/dining/18rest-nonna2/merlin_206745459_2e6b1923-acc2-45d5-ae02-7561d57116fb-articleLarge.jpg?quality=75&auto=webp&disable=upscale",1,0,1,"$$","Charming Italian spot known for its handmade Puglia-style pasta and genuine dishes, all served in a warm, inviting vibe. Cozy ambiance with a delicious menu.","606 2nd Ave, New York, NY 10016",-73.9759078,40.7441627
NA,"Hatsuhana","hatsuhana","Midtown East","midtown-east","Sushi","sushi","https://resy.com/cities/new-york-ny/venues/Hatsuhana?date=2024-09-07&seats=2","https://img1.10bestmedia.com/Images/Photos/335463/Hatsu-photo_55_660x440.jpg",1,0,1,"$$","New York's oldest sushi spot has been serving authentic, fresh sushi and sashimi since 1976. They stick to traditional Japanese techniques while providing top-notch service in a classy setting. Perfect for a special night out. ","17 E 48th St, New York, NY 10017",-73.9769308,40.7570001
NA,"El Parador Cafe","el-parador-cafe","Murray Hill","murray-hill","Mexican","mexican","https://resy.com/cities/new-york-ny/venues/el-parador-cafe?date=2024-09-07&seats=2","https://onthegrid.city/imager/s3_amazonaws_com/onthegrid.city/assets/grid/new-york-city/murray-hill-kips-bay/el-parador/Elparador4_299006722e285f47655d17d1c9136337.jpg",1,1,1,"$$","Charming, cozy spot with red stucco walls. Famous for incredible Margaritas and fresh Ceviche. Perfect for big gatherings or a romantic night out.","325 E 34th St, New York, NY 10016",-73.9747193,40.7444662
NA,"Le Pavillon","le-pavillon","Midtown","midtown","French","french","https://resy.com/cities/new-york-ny/venues/le-pavillon?date=2024-09-07&seats=2","https://image.resy.com/3/003/2/50955/6c4133677d0672fed1e6c75431e1615ccab0fda4/jpg/1600x1600",1,0,1,"$$$$","A seafood and vegetable-focused eatery by a renowned chef, showcasing a vibrant, nature-inspired dining area. Offers a three-course prix-fixe menu and a rich wine selection, celebrating French culinary traditions.","One Vanderbilt Avenue, New York, NY 10017",NA,NA
NA,"Fasano Restaurant New York","fasano-restaurant-new-york","Midtown East","midtown-east","Italian","italian","https://resy.com/cities/new-york-ny/venues/fasano-restaurant-new-york?date=2024-09-07&seats=2","https://media.timeout.com/images/105903446/image.jpg",1,0,1,"$$$","Fasano Restaurant serves up classic Milanese dishes from Chef Nicola Fedeli. Expect top-notch service and stylish design by Isay Weinfeld. They've got an impressive wine list and unique dining areas, including private rooms and a cozy jazz spot. Sophisticated vibes with a touch of flair.","280 Park Avenue, New York, NY 10017",-73.975049,40.7564852
NA,"Sushi Ann","sushi-ann","Midtown East","midtown-east","Sushi","sushi","https://resy.com/cities/new-york-ny/venues/sushi-ann?date=2024-09-09&seats=2","https://image.resy.com/3/003/2/41951/61b626976155f7f07f1ce81a4c7c38959f54a315/jpg/1600x1600",1,0,1,"$$$","A calm sushi spot with a warm and polite vibe. It serves genuine Japanese dishes, including seasonal omakase, made by talented chefs who blend Edomae techniques with a New York flair.","38 E 51st St, Manhattan, NY 10022",-73.9742003,40.7579822
NA,"Banc Cafe","banc-cafe","Murray Hill","murray-hill","American","american","https://resy.com/cities/new-york-ny/venues/banc-cafe?date=2024-09-09&seats=2","https://image.resy.com/3/003/2/50425/6615524c5b0cdd35c445f162a4cc9d448d293d94/jpg/1600x1600",1,1,1,"$$","A lively restaurant housed in a charming 1920s bank. Enjoy classic American dishes, live music, and a wide range of drinks. The atmosphere is classy and inviting, perfect for a night out.","431 3rd Ave, New York, NY 10016",-73.9797061,40.7432296
NA,"Sushi Amane","sushi-amane","Midtown East","midtown-east","Sushi","sushi","https://resy.com/cities/new-york-ny/venues/sushi-amane-fly?date=2024-09-09&seats=2","https://foodle.pro/meals-images/2020-07-06-18-31-39-0e4f1ed7bd40398eb68d5a7d88aba348.jpg",0,0,1,"$$$$","Cozy eight-seat Japanese omakase spot serving top-notch sushi. Chef Shion Uino focuses on seasonal ingredients and natural flavors. Found on the lower level of a popular restaurant.","245 East 44th Street, New York, NY 10017",-73.9716905,40.7516021
NA,"Jukai","jukai","Midtown East","midtown-east","Japanese","japanese","https://resy.com/cities/new-york-ny/venues/jukai?date=2024-10-23&seats=2","https://images.squarespace-cdn.com/content/v1/5d98e1a95db1fe07f1f9bd83/1638818724792-PGWA50GXQY3QYLKV57GU/jukai-interior-seats-bar.jpg?format=2500w",0,0,1,"$$$","Charming Japanese eatery with a warm vibe, serving up real hot pots like Sukiyaki and Shabu Shabu, fresh sushi, and more tasty dishes. Enjoy it all in a cozy, hidden setting below the street.","237 East 53rd Street, New York, NY 10022",-73.967849,40.7572711
NA,"Shogun Omakase","shogun-omakase","Midtown","midtown","Japanese","japanese","https://resy.com/cities/new-york-ny/venues/shogun-omakase?date=2024-10-23&seats=2","https://images.squarespace-cdn.com/content/v1/63f69921aab83d6399a3c45a/6e7c2f81-ed67-406f-8acc-9b785b1affb2/ShoGun_interior_04092023_012.jpg",1,0,1,"$$$","This spot provides a unique dining experience with carefully prepared Japanese dishes made from fresh, seasonal ingredients. Relish omakase menus that include sushi, tempura, and more, all served with real expertise by skilled chefs.","295 Madison Ave, New York, NY 10017",-73.9793366,40.7517813
NA,"MáLà Project - Bryant Park","ml-project--bryant-park","Midtown","midtown","Chinese","chinese","https://resy.com/cities/new-york-ny/venues/mala-project-bryant-park?date=2024-10-23&seats=2","https://image.resy.com/3/003/2/6409/aa5a335ad81500e9b6fb7578e38ca307c727cb8e/jpg/1600x1600",1,0,1,"$","Michelin Bib Gourmand recommended Chinese eatery known for customizable Sichuan dry pot. Choose from a variety of ingredients and spice levels. Also serves traditional Sichuan dishes in a fun, communal dining atmosphere.","41 W 46th St, New York, NY 10036",-73.9805862,40.7568991
NA,"El Rio Grande","el-rio-grande","Murray Hill","murray-hill","Mexican","mexican","https://resy.com/cities/new-york-ny/venues/el-rio-grande?date=2024-10-23&seats=2","https://thevendry.com/cdn-cgi/image/width=3840,quality=75,fit=contain,metadata=none,format=auto/https%3A%2F%2Fs3.us-east-1.amazonaws.com%2Fuploads.thevendry.co%2F24984%2F1677277426988_download.jpg",1,1,1,"$$","Lively Tex-Mex spot with two unique sides—Mexico and Texas. Enjoy fresh dishes, bold margaritas, and spacious outdoor patios. The vibe is energetic, with plenty of dining choices.","160 E 38th St, New York, NY 10016",-73.9770014,40.747976
NA,"Moono","moono","Korea Town","korea-town","Korean","korean","https://resy.com/cities/new-york-ny/venues/moono?date=2024-10-24&seats=2","https://axwwgrkdco.cloudimg.io/v7/__gmpics3__/a59380c37b254bb9b740234709ed860b.jpg?width=1000",0,0,1,"$$$","Chic Korean restaurant merging classic and contemporary tastes. Upscale vibe with creative dishes like kimchi quesadillas and Korean fried chicken. A distinct dining experience that balances casual and fine dining.","29 E 32nd St, New York, NY 10016",-73.9833004,40.7464413
NA,"Little Alley","little-alley","Murray Hill","murray-hill","Chinese","chinese","https://resy.com/cities/new-york-ny/venues/little-alley?date=2024-10-24&seats=2","https://res.cloudinary.com/the-infatuation/image/upload/v1711471069/NYC_LittleAlley_Interiors_AlexStaniloff-1_epvxil.jpg",1,1,1,"$$","Cozy spot serving genuine Shanghainese dishes, especially their renowned soup dumplings. The vibe is nostalgic, echoing Shanghai's classic alleys, with a warm and lively atmosphere.","550 3rd Ave, New York, NY 10016",-73.9772514,40.747425
NA,"Fini Pizza","fini-pizza","Williamsburg","williamsburg","Pizza","pizza","Walk in Only","https://images.squarespace-cdn.com/content/v1/5e44131bbb172a2db4f73c41/78fc6760-e457-4156-a17a-ba1bb5dda82f/p%26f_website_fini_preview-02.jpg",1,0,1,"$","A simple pizza place with foldable slices, delicious pies, fresh salads, and Italian ice. The laid-back atmosphere includes outdoor seating for a chill pre-show or pre-game bite.","305 Bedford Avenue, Brooklyn, NY 11211",-73.9617469,40.7134499
NA,"Fini Pizza Barclays Plaza Downtown Brooklyn","fini-pizza-barclays-plaza-downtown-brooklyn","Prospect Heights","prospect-heights","Pizza","pizza","Walk in Only","https://offloadmedia.feverup.com/secretnyc.co/wp-content/uploads/2023/09/22143337/barclays.jpg",1,0,1,"$","This spot serves up a new twist on traditional NYC pizza, pies, salads, and Italian ice. Open every day from noon to 10 PM, it’s an ideal place for a quick bite before a show or game. Relaxed and straightforward vibe.","620 Atlantic Avenue, Brooklyn, NY 11217",-73.9752519,40.6825106
NA,"Avant Garden","avant-garden","East Village","east-village","Vegan & Vegetarian","vegan--vegetarian","https://resy.com/cities/new-york-ny/venues/avant-garden?seats=2&date=2024-10-24","https://images.getbento.com/accounts/3d1ceaa675f6633ff55e9152a8de3468/media/images/45670Avant_Garden_East_Village2.jpg?w=1200&fit=crop&auto=compress,format&cs=origin&h=600",0,0,1,"$$$","Chic vegan spot serving globally-inspired dishes crafted entirely from veggies. Warm lighting and a cozy, treehouse vibe create the perfect atmosphere. Enjoy curated natural wines while you dine.","95 Avenue A, New York, NY 10009",-73.9840332,40.7256184
NA,"Frog Club","frog-club","West Village","west-village","American","american","https://resy.com/cities/new-york-ny/venues/frog-club?date=2024-10-24&seats=2","https://media.newyorker.com/photos/666a085cf2d1d8449b8d2c57/16:9/w_2560%2Cc_limit/image0%2520(13).jpeg",0,0,1,"$","This upscale spot has a cozy tavern vibe with dark, polished wood and frog-themed artwork. The menu serves up quirky Americana classics like fried green tomato strings and lobster pirogi, all about fun and great service.","86 Bedford St, New York, NY 10014",-74.0051476,40.7320557
NA,"Tolo","tolo","Chinatown","chinatown","Chinese","chinese","https://resy.com/cities/new-york-ny/venues/tolo?date=2024-10-24&seats=2","https://res.cloudinary.com/the-infatuation/image/upload/v1709669456/images/NYC_Tolo_Interiors_AlexStaniloff-3_p1nyiy.jpg",0,0,1,"$$$","Charming Chinese restaurant by Chef Ron Yan with a diverse menu that crosses regions. Stylish vibe with a 300-bottle wine selection. Cozy and welcoming atmosphere.","28 Canal Street, New York, NY 10002",-73.9905081,40.7143155
NA,"Bangkok Supper Club","bangkok-supper-club","West Village","west-village","Thai","thai","https://resy.com/cities/new-york-ny/venues/bangkok-supper-club?date=2024-10-24&seats=2","https://www.tagvenue.com/resize/f9/d8/fit-900-600;77785-entire-venue-room.jpg",0,0,1,"$$$","Creative Thai dishes inspired by Bangkok's nightlife. Shareable plates, charcoal grilling, and a lively, intimate vibe. Enjoy smoky cocktails and bright neon highlights.","641 Hudson St, New York, NY 10014",-74.0058009,40.7390267
NA,"Mekelburg's","mekelburgs","Williamsburg","williamsburg","American","american","Walk in Only","https://res.cloudinary.com/the-infatuation/image/upload/q_auto,f_auto/cms/reviews/mekelburgs-williamsburg/banners/1572969002.95",1,1,1,"$","Family-run craft beer spot and specialty food haven. Gourmet diner bites, classic sandwiches, vegan options, and fresh seasonal soups. Local beers and wines always on tap. Famous for a lively brunch menu and a fun vibe.","319 Kent Avenue, Brooklyn, NY 11249",-73.9668739,40.7137161
NA,"Teranga","teranga","Midtown East","midtown-east","African","african","Walk in Only","https://fastly.4sqi.net/img/general/600x600/117715_rQB2SJotWAPE-p4YMEUub1v8NyqnaSls54bNgdpwfu0.jpg",1,0,1,"$","A fast-casual spot honoring African culture with a mix of traditional and modern dishes. Co-Founder and Executive Chef Pierre Thiam draws inspiration from West African cuisine, using ancient ingredients and bold flavors. Perfectly captures the spirit of Africa.","601 Lexington Ave, New York, NY 10022",-73.9699153,40.7583358
NA,"Teranga","teranga","East Harlem","east-harlem","African","african","Walk in Only","https://res.cloudinary.com/the-infatuation/image/upload/v1656121318/cms/DavidALee_Teranga_Interior_001.jpg",1,0,1,"$","Fast-casual spot serving up traditional West African flavors. Enjoy jollof rice bowls and Senegalese black-eyed pea stew. A modern twist on Africa’s rich culinary heritage.","1280 5th Ave, New York, NY 10029",-73.9493338,40.7963422
NA,"The Edge","the-edge","Harlem","harlem","Caribbean","caribbean","https://resy.com/cities/new-york-ny/venues/the-edge-harlem?date=2024-10-24&seats=2","https://image.resy.com/3/003/2/49757/a3a1e7ddddd4add1591b9a16eab64d462b96cd87/jpg/1600x1600",1,1,1,"$","A warm, rustic spot that mixes Jamaican and British tastes with a New York flair. Enjoy inventive dishes, live music, and a family-friendly vibe that pays tribute to the area's rich history.","101 Edgecombe Avenue, New York, NY 10030",-73.9460727,40.8198671
NA,"Adom African Cuisine","adom-african-cuisine","West Bronx","west-bronx","African","african","Walk in Only","https://tb-static.uber.com/prod/image-proc/processed_images/4a4f13bf062c004059974aafcc99ff3a/8a42ee7a692dfa4155879820804a277f.jpeg",1,0,1,"$","Authentic Ghanaian and African eats with traditional flavors and fresh ingredients. Enjoy favorites like jollof rice, jerk chicken, and fufu. Quality and heritage are the focus.","613 E Tremont Ave, Bronx, NY 10457",-73.8925518,40.8462404
NA,"Electric Burrito","electric-burrito","Chelsea","chelsea","Mexican","mexican","Walk in Only","https://www.reddit.com/media?url=https%3A%2F%2Fi.redd.it%2F1kmhpim7ux3c1.jpg",1,0,1,"$","Vibrant spot with a diverse menu of tasty burritos, fluffy pancakes, and more. Perfect for pickup, delivery, and catering. Enjoy a lively dining experience!","307-309 West 17th St, New York, NY 10011",-73.9982857,40.7404695
NA,"Electric Burrito","electric-burrito","East Village","east-village","Mexican","mexican","Walk in Only","https://lh3.googleusercontent.com/places/AJQcZqK0UEi7MzTYDxt4K-LCohMKVNV6zAglauIGwzShB0-qLxjmEZqwZnUtc3a5MgJ_B5D6ppb7BGTdl2nqQVc-Lu8uKsJfW3_Iafc=s1600-w640",1,1,1,"$","Vibrant spot showcasing bold Mexican flavors, especially at breakfast and brunch. Offers vegan choices and hearty, tasty burritos. Cozy and relaxed, perfect for solo meals or small get-togethers.","81 St Marks Pl, New York, NY",-73.133094,40.9265831
NA,"The Blue Light Speak Cheesy","the-blue-light-speak-cheesy","Greenpoint","greenpoint","Other","other","Walk in Only","https://images.squarespace-cdn.com/content/v1/573e823e59827e68d0f65dae/1706243741918-KH3J75EA2T0S1CKE0VRO/193587358_10165557133950651_53629540998736938_n.jpg?format=1500w",0,1,0,"$","Quirky breakfast and coffee spot with inventive, changing menus. Enjoy gourmet grilled cheese, tasty breakfast tacos, and unique coffee creations. Vegan and gluten-free choices too. Casual vibes and delicious bites.","158 Green St, Brooklyn, NY 11222",-73.9551103,40.7336261
NA,"Super Burrito","super-burrito","Williamsburg","williamsburg","Mexican","mexican","Walk in Only","https://i0.wp.com/greenpointers.com/app/uploads/2023/02/IMG_2862-1.jpeg?fit=2000%2C1512&ssl=1",1,0,1,"$","This spot serves up San Francisco-style Mission burritos, bowls, and quesadillas. Choose from options like carne asada, al pastor, and grilled shrimp. It's a laid-back, counter-service place. A backroom bar and late-night menu are on the way.","320 Bedford Ave, Brooklyn, NY 11249",-73.9621439,40.7134153
NA,"Moonburger","moonburger","Williamsburg","williamsburg","Burger","burger","Walk in Only","https://s3-media0.fl.yelpcdn.com/bphoto/JF0Cu9Ij4i4v4HwySjaxuw/348s.jpg",1,0,1,"$","Locally owned burger spot serving up top-notch plant-based and fresh beef burgers from nearby farms. Enjoy a selection of beer and wine, plus a cozy vibe for dining in or taking out.","126 Bedford Ave, Brooklyn, NY 11249",-73.9561323,40.7194662
NA,"Ace's Pizza","aces-pizza","Williamsburg","williamsburg","Pizza","pizza","https://resy.com/cities/new-york-ny/venues/aces-pizza?date=2024-10-24&seats=2","https://res.cloudinary.com/the-infatuation/image/upload/v1656121771/cms/reviews/aces-perfect-pizza/TeddyWolff.AcesPizza.Socials.52.jpg",1,0,1,"$","This spot serves up Detroit-style pizza with a crunchy, cheesy crust and a touch of sweetness in the sauce. The retro vibe has an 80’s feel, packed with vintage games and a throwback atmosphere.","637 Driggs Ave, Brooklyn, NY 11211",-73.9585415,40.7149458
NA,"7th Street Burger - East Village","7th-street-burger--east-village","East Village","east-village","Burger","burger","Walk in Only","https://mir-s3-cdn-cf.behance.net/project_modules/1400/f2d18d138649179.622160e4eb984.png",1,0,1,"$","Lively burger spot with a fun vibe, serving up unique burgers and tasty sides. With several locations around the city, it’s a go-to for cheerful eats.","91 E 7th St, New York, NY 10009",-73.9853696,40.7269257
NA,"7th Street Burger - Times Square","7th-street-burger--times-square","Theater District/Times Square","theater-districttimes-square","Burger","burger","Walk in Only","https://mir-s3-cdn-cf.behance.net/project_modules/1400/f2d18d138649179.622160e4eb984.png",1,0,1,"$","Popular burger spot known for tasty, mouth-watering burgers, loaded fries, and top-notch service. A hit with both locals and visitors.","485 7th Ave, New York, NY 10018",-73.9893008,40.7523932
NA,"7th Street Burger - Nomad","7th-street-burger--nomad","NoMad","nomad","Burger","burger","Walk in Only","https://mir-s3-cdn-cf.behance.net/project_modules/1400/f2d18d138649179.622160e4eb984.png",1,0,1,"$","Local favorite spot serving up delicious comfort food and top-notch burgers. Cozy vibes and a welcoming atmosphere. Located at 1177 Broadway, New York, NY 10001.","1177 Broadway, New York, NY 10001",-73.9890605,40.7450862
NA,"7th Street Burger - Kips Bay","7th-street-burger--kips-bay","Kips Bay","kips-bay","Burger","burger","Walk in Only","https://mir-s3-cdn-cf.behance.net/project_modules/1400/f2d18d138649179.622160e4eb984.png",0,0,1,"$","Popular smash burger spot known for mouthwatering burgers, flavorful house sauce, and amazing loaded fries. The ultimate late-night hangout, loved by both locals and visitors.","364 3rd Ave, New York, NY 10016",-73.9818798,40.7411488
NA,"7th Street Burger - Chelsea","7th-street-burger--chelsea","Chelsea","chelsea","Burger","burger","Walk in Only","https://mir-s3-cdn-cf.behance.net/project_modules/1400/f2d18d138649179.622160e4eb984.png",1,0,1,"$","Famous for its tasty New York-style smash burgers, this spot offers juicy 75/25 meat-to-fat patties, onions, pickles, American cheese, and grilled potato rolls. It’s the real deal for smash burger lovers.","171 W 23rd St, New York, NY 10011",-73.9952986,40.7441181
NA,"7th Street Burger - Turtle Bay","7th-street-burger--turtle-bay","Turtle Bay","turtle-bay","Burger","burger","Walk in Only","https://mir-s3-cdn-cf.behance.net/project_modules/1400/f2d18d138649179.622160e4eb984.png",1,1,1,"$","Popular burger spot known for its mouthwatering, juicy smash burgers and tasty fries. Great location with fantastic customer reviews.","304 E 49th St, New York, NY 10017",-73.9686403,40.753938
NA,"7th Street Burger - Soho","7th-street-burger--soho","SoHo","soho","Burger","burger","Walk in Only","https://mir-s3-cdn-cf.behance.net/project_modules/1400/f2d18d138649179.622160e4eb984.png",0,0,1,"$","Famous for its straightforward yet delicious smash burgers, this spot uses a 75/25 meat-to-fat blend, topped with onions, pickles, and American cheese on grilled potato rolls. Now, it's making waves in London, teaming up with Truffle Burger.","250 Mulberry St, New York, NY 10012",-73.9956604,40.7231381
NA,"7th Street Burger - West Village","7th-street-burger--west-village","West Village","west-village","Burger","burger","Walk in Only","https://mir-s3-cdn-cf.behance.net/project_modules/1400/f2d18d138649179.622160e4eb984.png",1,0,1,"$","Highly praised burger spot known for tasty burgers, signature sauce, and loaded fries. Boasts a 4.8-star rating and is celebrated as one of the top burger joints in Manhattan.","110 MacDougal St, New York, NY 10012",-74.0006603,40.7295357
NA,"7th Street Burger - Upper East Side","7th-street-burger--upper-east-side","Upper East Side","upper-east-side","Burger","burger","Walk in Only","https://mir-s3-cdn-cf.behance.net/project_modules/1400/f2d18d138649179.622160e4eb984.png",1,0,1,"$","A popular smashburger spot known for its juicy, greasy, and cheesy burgers. Quick delivery and reliable quality make it a fan favorite, bringing back memories of classic burger stands.","1603 2nd Ave, New York, NY 10028",-73.9532811,40.7761893
NA,"7th Street Burger - Lower East Side","7th-street-burger--lower-east-side","Lower East Side","lower-east-side","Burger","burger","Walk in Only","https://mir-s3-cdn-cf.behance.net/project_modules/1400/f2d18d138649179.622160e4eb984.png",0,1,1,"$","This popular burger spot serves up tasty, fresh burgers and great fries. The service is top-notch, and they’re known for quick deliveries, no matter the weather.","173 Orchard St, New York, NY 10002",-73.9885495,40.7216328
NA,"7th Street Burger - Financial District","7th-street-burger--financial-district","FiDi","fidi","Burger","burger","Walk in Only","https://mir-s3-cdn-cf.behance.net/project_modules/1400/f2d18d138649179.622160e4eb984.png",1,0,1,"$","A top-notch burger spot famous for mouthwatering burgers, loaded fries, and a unique house sauce. It’s a delicious and fulfilling dining experience right in the city’s core.","80 Nassau St, New York, NY 10038",-74.0080652,40.7097975
NA,"7th Street Burger - Astoria","7th-street-burger--astoria","Astoria","astoria","Burger","burger","Walk in Only","https://mir-s3-cdn-cf.behance.net/project_modules/1400/f2d18d138649179.622160e4eb984.png",1,0,1,"$","Casual spot with a straightforward yet delicious menu of smash burgers, including plant-based choices. Enjoy loaded fries and a unique house sauce. Spacious with late-night hours. Perfect for after-hours cravings.","35-02 30th Ave, Long Island City, NY 11103",NA,NA
NA,"7th Street Burger - Williamsburg","7th-street-burger--williamsburg","Williamsburg","williamsburg","Burger","burger","Walk in Only","https://mir-s3-cdn-cf.behance.net/project_modules/1400/f2d18d138649179.622160e4eb984.png",0,0,0,"$","This burger joint boasts a lively vibe with top-notch burgers and a relaxed atmosphere. It’s a favorite hangout in the area.","177 Bedford Ave, Brooklyn, NY 11211",-73.9573063,40.7179285
NA,"7th Street Burger - Hoboken","7th-street-burger--hoboken","Hoboken","hoboken","Burger","burger","Walk in Only","https://mir-s3-cdn-cf.behance.net/project_modules/1400/f2d18d138649179.622160e4eb984.png",1,0,1,"$","Highly praised eatery known for its soft, delicious smash burgers, speedy service, and tasty fries. Everything on top-notch potato buns. A local favorite for juicy, flavorful bites.","410 Washington Street, Hoboken, NJ 07030",-74.0297834,40.7417635
NA,"7th Street Burger - Downtown Brooklyn","7th-street-burger--downtown-brooklyn","Downtown Brooklyn","downtown-brooklyn","Burger","burger","Walk in Only","https://mir-s3-cdn-cf.behance.net/project_modules/1400/f2d18d138649179.622160e4eb984.png",1,0,0,"$","This spot elevates fast food with juicy, delicious cheeseburgers and crispy, crave-worthy fries. Each bite is packed with flavor, making you want to return for more. Check it out at 400 Jay Street.","400 Jay St, Brooklyn, NY 11201",-73.9874725,40.6920978
NA,"Ops","ops","Bushwick","bushwick","Pizza","pizza","https://resy.com/cities/new-york-ny/venues/ops-bk?date=2024-10-21&seats=2","https://res.cloudinary.com/the-infatuation/image/upload/v1656116294/cms/guides/great-nyc-restaurants-for-new-years-eve-that-dont-require-a-tasting-menu/NoahDevereaux_PizzaGuide_223_Ops.jpg",0,0,1,"$","Neapolitan-inspired pizza spot with wood-fired pizzas, antipasti, and homemade desserts. Cozy vibe with no frills, plus high-quality, locally sourced ingredients.","346 Himrod St, Brooklyn, NY 11237",-73.9171262,40.7026827
NA,"Leo","leo","Williamsburg","williamsburg","Pizza","pizza","https://resy.com/cities/new-york-ny/venues/leo-nyc?date=2024-10-21&seats=2","https://media.newyorker.com/photos/5e335338b5c810000827e6d0/master/w_1600%2Cc_limit/200210_r35812.jpg",0,1,1,"$","Chic bistro serving sourdough treats, natural wines, and a range of pizzas. Enjoy comforting dishes like lasagna and meatballs in a relaxed and roomy setting.","123 Havemeyer St, Brooklyn, NY 11211",-73.956968,40.712315
NA,"Edith's Sandwich Counter","ediths-sandwich-counter","Williamsburg","williamsburg","Deli & Bagel","deli--bagel","Walk in Only","https://edithsbk.com/wp-content/uploads/2022/04/sandwichcounterimage-1.jpg",1,0,0,"$","Casual spot serving up fresh, grilled-to-order bagels and hot sandwiches. Enjoy breakfast and lunch with a historical twist, plus creative options like the BEC&L sandwich and refreshing iced cafe slushies. No reservations required, with some outdoor seating available or take-out if you prefer.","495 Lorimer St, Brooklyn, NY 11211",-73.9492356,40.7116962
NA,"Edith's Sandwich Counter","ediths-sandwich-counter","West Village","west-village","Deli & Bagel","deli--bagel","Walk in Only","https://edithsbk.com/wp-content/uploads/2024/09/64_Charles_St_Rendering.jpg",1,0,0,"$","Casual spot serving creative, made-from-scratch bagel and hot sandwiches, plus tasty sides, salads, and unique slushies. Indoor and outdoor seating available—no reservations needed.","64 Charles St, New York, NY 10014",-74.0032457,40.7348029
NA,"Nami Nori","nami-nori","Williamsburg","williamsburg","Sushi","sushi","https://www.opentable.com/restref/client/?restref=1283572&lang=en-US&ot_source=Restaurant%20website&corrid=8af5977a-cc92-42cf-962d-19c9f1f45dc7","https://images.dwell.com/photos/6877377675512651776/6877380873893851136/large.jpg",1,1,1,"$$","Laid-back spot focused on open-style sushi hand rolls. Enjoy a mix of flavors, tasty Japanese snacks, and drinks in a bright, beachy vibe. Perfect for a casual bite.","236 N 12th St, Brooklyn, NY 11211",-73.9528855,40.7191766
NA,"Nami Nori","nami-nori","West Village","west-village","Sushi","sushi","https://www.opentable.com/restref/client/?restref=1283572&lang=en-US&ot_source=Restaurant%20website&corrid=8af5977a-cc92-42cf-962d-19c9f1f45dc7","https://images.squarespace-cdn.com/content/v1/5ce5a075d10d8800011f0906/1577814513839-WM0QL54BRXSU10PZGHFN/190922_NAMINORI_360-4.jpg",1,0,1,"$$","Casual yet chic temaki spot focused on open-style sushi hand rolls. Think Scandi-Japanese vibes, gluten-free options, and a laid-back beach house feel. Founded by veterans of the famous Masa restaurant.","33 Carmine St, New York, NY 10014, USA",-74.0032937,40.7302633
NA,"Berimbau Brazilian Kitchen","berimbau-brazilian-kitchen","West Village","west-village","Latin American","latin-american","https://resy.com/cities/new-york-ny/venues/berimbau-brazilian-kitchen?date=2024-10-23&seats=2","https://thevendry.com/cdn-cgi/image/width=3840,quality=75,fit=contain,metadata=none,format=auto/https%3A%2F%2Fs3.us-east-1.amazonaws.com%2Fuploads.thevendry.co%2F36223%2F1683310694411_2020-07-06-Berimbau_FSP9678.jpg",1,1,1,"$$","Cozy Brazilian restaurant serving up modern, authentic dishes. Savor Picanha, Moqueca Baiana, and Feijoada, plus refreshing Cachaça cocktails. Enjoy the vibe inspired by Brazil's natural beauty.","43 Carmine St, New York, NY 10014",-74.0037019,40.7301381
NA,"Berimbau Brazilian Kitchen","berimbau-brazilian-kitchen","Midtown","midtown","Latin American","latin-american","https://resy.com/cities/new-york-ny/venues/berimbau-brazilian-kitchen-midtown?date=2024-10-23&seats=2","https://image.resy.com/3/003/2/77619/91ceaa8d31915e1c8c90106fd5a3dbab497f258c/jpg/1600x1600",1,1,1,"$$","Berimbau Brazilian Kitchen serves up a fresh take on classic Brazilian dishes like Picanha and Feijoada. Enjoy Cachaça cocktails in a roomy, modern setting that invites you to relax.","3 W 36th St, New York, NY 10018",-73.9841403,40.7501481
NA,"Best Pizza - Grant st","best-pizza--grant-st","Williamsburg","williamsburg","Pizza","pizza","Walk in Only","https://www.northbrooklyndispatch.com/photos/2023/02/bestpizzaIMG_6658.jpg",0,0,1,"$","Charming wood-fired pizza place serving up classic NYC slices. Enjoy traditional flavors in a lively atmosphere. Open from 11:00 am to 10:00 pm on Fridays and Saturdays.","800 Grand St, Brooklyn, NY 11211",-73.941334,40.7117081
NA,"Best Pizza - Havemeyer st","best-pizza--havemeyer-st","Williamsburg","williamsburg","Pizza","pizza","Walk in Only","https://arc-anglerfish-washpost-prod-washpost.s3.amazonaws.com/public/7M3IFQMVVYSKWB3QY3V64NWAPU_size-normalized.jpg",1,0,1,"$","Wood-fired pizza joint serving up classic NYC slices. Check out the menu for 20"" pies, heroes, and tasty sides—everything made with fresh, top-notch ingredients. ","33 Havemeyer St, Brooklyn, NY 11211",-73.9534877,40.7156064
NA,"Di Fara Pizza","di-fara-pizza","FiDi","fidi","Pizza","pizza","Walk in Only","https://c8.alamy.com/comp/2R8635A/difara-pizza-restaurant-in-south-street-seaport-in-manhattan-nyc-2R8635A.jpg",1,0,1,"$","Famous for top-notch ingredients and classic Italian recipes. Even at a new spot, it serves handcrafted pizzas using imported goodies like San Marzano tomatoes and bufala mozzarella. Expect crispy crusts and bold flavors.","108 South Street, New York, NY 10038",-74.0020731,40.7070983
NA,"Di Fara Pizza","di-fara-pizza","Midwood","midwood","Pizza","pizza","Walk in Only","https://pbs.twimg.com/media/FOEWzDgWUAAJuWN?format=jpg&name=4096x4096",1,0,1,"$","Famous spot known for its handmade pizzas, made by the late Domenico DeMarco with top-notch Italian ingredients. Often called one of NYC's best, despite its simple look and long lines.","1424 Avenue J, Brooklyn, NY 11230",-73.9614948,40.625047
NA,"Bagel Point","bagel-point","Greenpoint","greenpoint","Deli & Bagel","deli--bagel","Walk in Only","https://brooklynbagelblog.com/wp-content/uploads/2020/11/Bagel-Point-Manhattan-Avnue.jpg",1,1,0,"$","A popular spot for organic, handcrafted bagels, plus a diverse selection of cream cheeses and sandwiches. Famous for fresh flavors and fast service. A go-to for both locals and visitors.","699 Manhattan Avenue, Brooklyn, NY 11222",-73.9519101,40.7255164
NA,"Urban Hawker","urban-hawker","Midtown","midtown","Food Court","food-court","Walk in Only","https://static01.nyt.com/images/2023/01/18/multimedia/18hawker-notebook10-mhlf/17hawker-notebook10-mhlf-superJumbo.jpg",1,1,1,"$$","A unique food hall inspired by Singapore, serving real Malay, Peranakan, Chinese, and Indian dishes from certified hawkers. Plus, enjoy Singaporean-inspired cocktails. Close to major attractions.","135 W 50th St, New York, NY 10020",-73.9823969,40.7608683
NA,"Okatte Tanto","okatte-tanto","Turtle Bay","turtle-bay","Japanese","japanese","Walk in Only","https://s3-media0.fl.yelpcdn.com/bphoto/zMcbrSejic3cPb2yT6Rc4Q/348s.jpg",1,0,0,"$$$","Cozy Japanese spot known for its real bento boxes and creative dishes. A nice change from the usual American cuisine, with daily specials and unique drinks.","249 E 49th St, New York, NY 10017, USA",-73.9693586,40.7546141
NA,"Trattoria Zero Otto Nove","trattoria-zero-otto-nove","Flatiron","flatiron","Italian","italian","https://www.opentable.com/r/trattoria-zero-otto-nove-flatiron-new-york","https://resizer.otstatic.com/v2/photos/xlarge/2/65872909.webp",1,0,1,"$$","This spot offers genuine Southern Italian dishes, complete with a wood-fired oven from Naples. Enjoy traditional pizzas, fresh homemade pastas, and a great selection of wines. The vibe is relaxed and charming, perfect for a casual meal.","15 W 21st St, New York, NY 10010",-73.9916571,40.7408464
NA,"Zero Otto Nove","zero-otto-nove","Belmont","belmont","Italian","italian","https://www.sevenrooms.com/reservations/zeroottonovebronx","https://images.ctfassets.net/1aemqu6a6t65/4JtDJzivR4WrpDbiWA9uPh/26aea7474731e3f1454838d44da2bca7/zero-otto-nove-joe-buglewicz-13?w=1200&h=800&q=75",1,0,1,"$$","Authentic Italian trattoria inspired by the Salerno area code. Enjoy classic Southern Italian dishes, wood-fired pizzas, and a cozy, rustic vibe like an Italian village.","2357 Arthur Ave, Bronx, NY 10458, USA",-73.8884476,40.8547264
NA,"Ann & Tony's","ann--tonys","Belmont","belmont","Italian","italian","Walk in Only","https://www.annandtonysonline.com/wp-content/uploads/2023/05/Best-arthur-avenue-restaurant.webp",1,0,1,"$$","A family-run Italian spot dishing up classic Southern recipes since 1927. Five generations of hearty servings and a cozy, traditional vibe.","2407 Arthur Ave, Bronx, NY 10458",-73.8876305,40.8558602
NA,"Casa del Mar Seafood Restaurant","casa-del-mar-seafood-restaurant","Belmont","belmont","Seafood","seafood","https://www.opentable.com/r/casa-del-mar-bronx?ref=1068","https://pbs.twimg.com/media/Eok4QlKWEAAPXAM.jpg",1,0,1,"$$","This seafood spot boasts a varied menu, a stunning event space, free parking, and a friendly vibe. Enjoy dining in, or grab catering and delivery through multiple options.","1779 Webster Avenue, Bronx, NY 10457",-73.9026721,40.8451642
NA,"Spicy Village","spicy-village","Chinatown","chinatown","Chinese","chinese","Walk in Only","https://freight.cargo.site/w/1200/i/12128a347d90eff5ad67051f20df8261f1625f4b7c86288e59c9ad346c6789b9/Screen-Shot-2021-12-29-at-10.34.14-AM.png",1,0,1,"$","A popular spot offering authentic Henan cuisine, famous for its handmade wheat noodles and spicy big tray chicken. Traditional dishes made with care for the region’s culinary roots.","68 Forsyth St B, New York, NY 10002",NA,NA
NA,"Tra di Noi","tra-di-noi","Belmont","belmont","Italian","italian","Walk in Only","https://res.cloudinary.com/the-infatuation/image/upload/v1714674197/images/NYC_TraDeNoi_Interior_AlexStaniloff-3_mlsikf.jpg",1,0,1,"$$","Family-owned Italian trattoria with authentic dishes, a cozy vibe, crimson walls, and red-checkered tablecloths. Michelin-rated eats at prices that won’t break the bank.","622 E 187th St, Bronx, NY 10458",-73.8868064,40.855029
NA,"Calabria Pork Store","calabria-pork-store","Belmont","belmont","Deli & Bagel","deli--bagel","Walk in Only","https://res.cloudinary.com/the-infatuation/image/upload/c_fill,w_1920,ar_4:3,g_center,f_auto/NYC_CalabriaPorkStore_Interior_EmilySchindler_01_mcbgjh",0,0,0,"$","A long-standing spot known for its genuine Italian cured meats, homemade cheeses, and classic Calabrian dishes. Celebrating a deep culinary tradition.","2338 Arthur Ave, Bronx, NY 10458",-73.8886269,40.8541115
NA,"Casa della Mozzarella","casa-della-mozzarella","Belmont","belmont","Deli & Bagel","deli--bagel","Walk in Only","https://res.cloudinary.com/the-infatuation/image/upload/v1679082747/NYC_CalabriaPorkStore_Interior_EmilySchindler_01_mcbgjh.jpg",1,0,0,"$","Renowned specialty food market famous for hand-pulled, homemade mozzarella. A wide variety of meats, cheeses, and Italian treats, all celebrated for their top-notch freshness and quality.","604 E 187th St, Bronx, NY 10458",-73.8874148,40.8553223
NA,"Daphne","daphne","BedStuy","bedstuy","Italian","italian","https://resy.com/cities/new-york-ny/venues/daphnes-ny?date=2024-08-08&seats=2","https://cdn.vox-cdn.com/thumbor/4zfV4D1vEH-0O8KD1jPESMIQ8hg=/0x0:4000x2667/1200x0/filters:focal(0x0:4000x2667):no_upscale()/cdn.vox-cdn.com/uploads/chorus_asset/file/25407084/apisukh_eater_daphnes_3312.jpg",0,0,1,"$$$","Charming Italian-American spot with a seasonal menu, fresh made pasta, and shareable plates. Enjoy signature cocktails in a cozy setting with a twinkling front window.","299 Halsey St, Brooklyn, NY 11216",-73.941091,40.682896
NA,"PJ Clarke’s","pj-clarkes","Battery Park City","battery-park-city","American","american","https://resy.com/cities/new-york-ny/venues/p-j-clarkes-on-the-hudson?date=2024-08-09&seats=2","https://image.resy.com/3/003/2/64563/5380d36455ae3ac758d730ad3ba4606239bc75fa/jpg/1600x1600",1,1,1,"$$","Classic saloon vibes since 1884, brimming with Irish charm and rich history. Famous for its burgers, it offers an iconic dining experience right in the city.","250 Vesey St, New York, NY 10281",-74.0158798,40.7140007
NA,"Tatiana by Kwame Onwuachi","tatiana-by-kwame-onwuachi","Upper West Side","upper-west-side","Fusion","fusion","https://resy.com/cities/new-york-ny/venues/tatiana?date=2024-10-02&seats=2","https://media.timeout.com/images/106027457/image.jpg",0,0,0,"$$$","A lively spot serving Afro-Caribbean dishes with a New York twist, blending rich flavors and cultural influences. Chef Kwame Onwuachi brings it all to life.","10 Lincoln Center Plaza, New York, NY 10023",NA,NA
NA,"Roscioli A la Carte","roscioli-a-la-carte","SoHo","soho","Italian","italian","https://resy.com/cities/new-york-ny/venues/roscioli-a-la-carte?date=2024-10-04&seats=2","https://media.newyorker.com/photos/65382e7b36d0344304e40de5/master/pass/231106_r43273.jpg",0,0,1,"$$","This spot serves up genuine Roman tastes with a classic Italian market vibe. Expect top-notch ingredients, a deli display, an open kitchen, and options for both à la carte dishes and tasting menus. It pays tribute to its sister restaurant in Rome.","43 MacDougal St, New York, NY 10012",-74.0026023,40.7277483
NA,"Roscioli-Tasting Menu","rosciolitasting-menu","SoHo","soho","Italian","italian","https://resy.com/cities/new-york-ny/venues/roscioli-tasting-menu?date=2024-10-04&seats=2","https://cdn.vox-cdn.com/thumbor/xTbsePXmc9uWH0vZAV2ViD__X0I=/0x0:4000x3000/1200x0/filters:focal(0x0:4000x3000):no_upscale()/cdn.vox-cdn.com/uploads/chorus_asset/file/24785050/230711_ROSCIOLI_EATER_026.jpg",0,0,1,"$$","Chic basement venue with stylish décor, offering a refined five-course tasting menu. Each dish paired with unique wines, showcasing genuine Roman flavors and top-notch ingredients. Experience the art of wine and food storytelling.","43 MacDougal St, New York, NY 10011",-74.0026023,40.7277483
NA,"Lola Taverna","lola-taverna","SoHo","soho","Mediterranean","mediterranean","https://resy.com/cities/new-york-ny/venues/lola-taverna?date=2024-09-30&seats=2","https://images.squarespace-cdn.com/content/v1/5ea0edc069f98c05aa9dc99b/1601500043536-GA2U1WQJ81MFI9PY0UVU/FB3D1BEC-12FA-48F0-B554-E29C9EFD0FD9.JPG",1,1,1,"$$","Vibrant Greek eatery capturing the spirit of the islands. Fresh, quality ingredients in a warm and welcoming space. A true gem in the city.","210 6th Ave, New York, NY 10014",-74.003293,40.727051
NA,"The Tavern at Gramercy Tavern","the-tavern-at-gramercy-tavern","Flatiron","flatiron","American","american","https://resy.com/cities/new-york-ny/venues/gramercy-tavern?date=2024-09-30&seats=2","https://res.cloudinary.com/the-infatuation/image/upload/q_auto,f_auto/cms/media/reviews/gramercy-tavern/banners/Gramercy-Tavern1_2",1,0,1,"$$$$","A casual spot with a laid-back vibe, serving rustic, seasonal American dishes. Enjoy à la carte options cooked over an open wood fire in a cozy, farmhouse-style setting.","42 E 20th St, New York, NY 10003",-73.988414,40.7383894
NA,"The Dining Room at Gramercy Tavern","the-dining-room-at-gramercy-tavern","Flatiron","flatiron","American","american","https://resy.com/cities/new-york-ny/venues/the-dining-room-at-gramercy-tavern?date=2024-09-30&seats=2","https://cdn.vox-cdn.com/thumbor/C73hRtHuN73xuB0pee-GoCv4xI4=/0x0:2000x1333/1200x675/filters:focal(840x506:1160x826)/cdn.vox-cdn.com/uploads/chorus_image/image/64046099/GRAMERCY_lead.0.0.1527721621.0.jpg",1,0,1,"$$$$","An elegant dining area with a chill vibe, showcasing seasonally inspired menus. Indulge in a five-course tasting menu with optional wine pairings, showcasing local produce in a stylish, farmhouse-chic setting.","42 E 20th St, New York, NY 10003",-73.988414,40.7383894
NA,"Manhatta","manhatta","FiDi","fidi","American","american","https://resy.com/cities/new-york-ny/venues/manhatta?gad_source=1&gbraid=0AAAAADRRHWNDLGoKyLs00U02W6kZVy7q0&gclid=CjwKCAiAxKy5BhBbEiwAYiW--5nRoE57C-r03hlrLz-Rlel3wx92qYxoWRm2SbexvONb65j5kq4HtBoCh2QQAvD_BwE&gclsrc=aw.ds&date=2024-11-06&seats=2","https://static01.nyt.com/images/2022/03/09/dining/09manhatta-bar1/merlin_203224119_294ee467-36e0-4f24-b731-161786b5b4b1-superJumbo.jpg",1,0,1,"$$$","Manhatta is on the 60th floor, serving a mix of classic and modern dishes alongside stunning views of the city. Enjoy a cutting-edge chef's counter and a top-notch bar.","28 Liberty St, 60th Floor, New York, NY 10005",NA,NA
NA,"Dowling's at The Carlyle","dowlings-at-the-carlyle","Upper East Side","upper-east-side","American","american","https://www.exploretock.com/dowlingsatthecarlyle","https://images.rosewoodhotels.com/is/image/rwhg/Carlyle_Dowlings_05",1,1,1,"$$$$","Chic dining space with classic American dishes and nostalgic favorites. All created by Executive Chef Sylvain Delpique. Enjoy a refined and historic atmosphere.","35 E 76th St, New York, NY 10021",-73.9629901,40.7742485
NA,"Rule of Thirds","rule-of-thirds","Greenpoint","greenpoint","Japanese","japanese","https://resy.com/cities/new-york-ny/venues/rule-of-thirds?date=2024-11-06&seats=2","https://ulsnyc.com/wp-content/uploads/2022/04/rule_of_thirds_-_restaurant-5.jpg",0,1,1,"$$$","This laid-back Japanese eatery serves a variety of small plates, sashimi, and imaginative sandwiches. Enjoy the lively vibe and a selection of unique cocktails. Brunch and dinner are both served here.","171 Banker St, Brooklyn, NY 11222",-73.9552053,40.7247377
NA,"SHŌSH","shsh","Greenwich Village","greenwich-village","Mediterranean","mediterranean","https://resy.com/cities/new-york-ny/venues/shosh?date=2024-11-06&seats=2","https://image.resy.com/3/003/2/83803/b7ed2de8728ddc937fe10ba67e8af3b59231fac1/jpg/1600x1600",0,0,1,"$$$","This plant-based Mediterranean spot serves a full dinner menu using seasonal ingredients. Enjoy a deli, a coffee station, and a wine selection, all reflecting the owner's Israeli roots and a focus on health and the environment.","41 Greenwich Ave, New York, NY 10014",-74.0007009,40.7354055
NA,"WANO New York","wano-new-york","Midtown East","midtown-east","Japanese","japanese","https://resy.com/cities/new-york-ny/venues/wano?date=2024-11-06&seats=2","https://resizer.otstatic.com/v2/photos/wide-huge/2/54320215.jpg",1,0,1,"$$","A lively Japanese izakaya mixing classic methods with modern flair. Enjoy a varied selection of sushi, sashimi, and hot dishes in a friendly, urban atmosphere.","245 E 44th St, New York, NY 10017",-73.9716905,40.7516021
NA,"Regina's Grocery","reginas-grocery","BedStuy","bedstuy","Sandwich","sandwich","Walk in Only","https://res.cloudinary.com/the-infatuation/image/upload/v1715791174/images/NYC_Regina_sBed-Stuy_WillaMooreiPhoneContent_EDIT_02_gmbvkt.jpg",1,0,0,"$","Beloved Italian deli is opening up on Bedford Avenue. This Brooklyn spot serves classic sandwiches, like Uncle Jimmy and Uncle John, alongside salads and Italian favorites, all inspired by family recipes.","1063 Bedford Avenue, Brooklyn, NY 11216",-73.9545693,40.6875557
NA,"Regina's Grocery","reginas-grocery","Lower East Side","lower-east-side","Sandwich","sandwich","Walk in Only","https://officemagazine.net/sites/default/files/screen_shot_2023-07-24_at_5.38.04_pm.png",1,0,0,"$","Charming Italian deli with vintage decor and family-inspired sandwiches. Homemade sauces add to the authentic Italian-American vibe. A true taste of old-school New York.","27 Orchard Street, New York, NY 10002",-73.9916826,40.7155212
NA,"Regina's Grocery - Mulberry","reginas-grocery--mulberry","NoLiTa","nolita","Sandwich","sandwich","Walk in Only","https://res.cloudinary.com/the-infatuation/image/upload/q_auto,f_auto/images/Reginas_Grocery_Sandwich_yy6ytv",1,0,1,"$","Brooklyn-born Italian deli and specialty shop serving up authentic, freshly made sandwiches and salads. Each dish honors a family member, packed with high-quality ingredients like prosciutto, mortadella, and fresh mozzarella.","241 Mulberry St, New York, NY 10012",-73.9961425,40.7228841
NA,"Regina's Grocery - UES","reginas-grocery--ues","Upper East Side","upper-east-side","Sandwich","sandwich","Walk in Only","https://www.reddit.com/media?url=https%3A%2F%2Fi.redd.it%2Fg9pe0ylm5im81.jpg&rdt=32796",1,0,0,"$","Italian sandwich spot serving family-inspired subs made with premium ingredients like prosciutto, mozzarella, and sopressata. Crafted with care by the Grandinetti family.","300 E 88th St, New York, NY 10128",-73.9506892,40.7790135
NA,"Scarr's Pizza","scarrs-pizza","Lower East Side","lower-east-side","Pizza","pizza","https://www.opentable.com/r/scarrs-pizza-new-york?ref=1068","https://media.newyorker.com/photos/64e66ec548bb599090cfe1ee/3:2/w_2559,h_1706,c_limit/230904_r42872.jpg",1,0,1,"$","Classic pizzeria with a retro vibe, boasting handmade, stone-milled flour crusts and fresh mozzarella. The lively atmosphere brings back the charm of old-school neighborhood spots, all while keeping it modern.","35 Orchard Street, New York, NY 10002",-73.9915692,40.7157403
NA,"Shabushabu Mayumon","shabushabu-mayumon","Lower East Side","lower-east-side","Japanese","japanese","https://www.yelp.com/reservations/shabushabu-mayumon-new-york-5?from_reserve_now=1","https://images.squarespace-cdn.com/content/v1/5e5f3066b68a8f72212dfb4d/1583807623004-WVM2RMD3FCE5R1XQMOLB/MM_interior_bright_01_MG_7795.jpg",0,0,0,"$$$$","Cozy 10-seat counter spot serving top-notch shabu-shabu. Savor A5 Miyazaki wagyu and American wagyu, complemented by a variety of sauces and classic Japanese methods. Experience it all in an omakase tasting menu.","115 Division Street, New York, NY 10002",-73.992066,40.7142841
NA,"Cervo's","cervos","Lower East Side","lower-east-side","Seafood","seafood","https://resy.com/cities/new-york-ny/venues/cervos?date=2024-11-06&seats=2","https://image.resy.com/3/003/2/1385/b0d513fa87a36865fe6204fa48415b8f198f0b06/jpg/1600x1600",0,0,1,"$$","A laid-back oyster spot that focuses on seafood with a touch of Portuguese and Spanish flair. Cozy wine bar vibes, straightforward but chic dishes, and a thoughtfully selected wine list.","43 Canal St, New York, NY 10002",-73.9913229,40.7148957
NA,"La Grande Boucherie","la-grande-boucherie","Midtown","midtown","French","french","https://www.opentable.com/r/la-grande-boucherie-new-york?ref=1068","https://www.biteofthebest.com/wp-content/uploads/IMG_0227.jpeg",1,1,1,"$$","Chic French brasserie inspired by Art Nouveau and the Belle Epoque. Gorgeous 40-foot glass ceiling, heated outdoor plaza, and stylish interiors. Enjoy authentic French dishes in a one-of-a-kind setting.","145 W 53rd St, New York, NY 10019",-73.9809251,40.7626759
NA,"Brown Bag Sandwich Co","brown-bag-sandwich-co","Greenwich Village","greenwich-village","Sandwich","sandwich","Walk in Only","https://res.cloudinary.com/the-infatuation/image/upload/f_auto/q_auto/v1729091973/images/NYC_BrownBagSandwichCo_Exterior_KatePrevite_00001_w0rxur.jpg",1,0,0,"$","Creative, chopped takes on classic deli sandwiches, made with house-cured meats and fresh-baked bread. A modern nod to traditional bodegas.","218 Thompson St, New York, NY 10012",-74.0020999,40.7255093
NA,"Great NY Noodletown","great-ny-noodletown","Chinatown","chinatown","Chinese","chinese","Walk in Only","https://onthegrid.city/imager/s3_amazonaws_com/onthegrid.city/assets/grid/new-york-city/chinatown/great-n-y-noodletown/55bb8d0369702d23770003d5_299006722e285f47655d17d1c9136337.jpg",1,0,1,"$","This popular spot has been serving up genuine Cantonese dishes since 1981. Enjoy roast meats, noodle dishes, and wonton soups in a simple, cash-only environment. Open late, from 9am to 4am.","28 Bowery St, New York, NY 10013",-73.9799809,40.5747824
NA,"Ume","ume","Williamsburg","williamsburg","Sushi","sushi","https://resy.com/cities/new-york-ny/venues/ume?date=2024-11-06&seats=2","https://image.resy.com/3/003/2/36113/e60b94de449cffd4d25c526b08dfffd7717806c4/jpg/1600x1600",0,0,1,"$$$$","This unique Japanese spot offers a chic omakase experience in a cozy, minimalistic space with a lovely patio garden. Guests can make their own handrolls using globally-inspired seasonings, making for a fun and creative dining adventure.","237 Kent Ave, Brooklyn, NY 11249",-73.9654572,40.7165079
NA,"Sendo","sendo","Korea Town","korea-town","Sushi","sushi",NA,"https://media.cntraveler.com/photos/66c8ac75ae1b281c810f0bea/16:9/w_2560,c_limit/Interior.jpg",0,0,1,NA,"No details about a restaurant called ""Sendo"" in the sources. But for a taste of Koreatown, check out GAONNURI for fancy eats and nice views, or Food Gallery 32 for a floor of diverse Korean and Asian bites.","876 6th Ave, 2nd Floor, New York, NY 10001",NA,NA
NA,"Chez Moi","chez-moi","Brooklyn Heights","brooklyn-heights","French","french","https://resy.com/cities/new-york-ny/venues/chez-moi?date=2024-09-24&seats=2","https://thetourguy.com/wp-content/uploads/2022/01/Chez-Moi.png",1,1,1,"$","Charming French bistro offering classic dishes like Steak Frites, Escargot, and mussels. Creative cocktails and a cozy vibe with warm lighting and Nouveau French tunes create the perfect atmosphere.","135 Atlantic Ave, Brooklyn, NY 11201",-73.9956272,40.6907583
NA,"Lena West Village","lena-west-village","West Village","west-village","French","french","Walk in Only","https://images.otstatic.com/prod1/42641289/4/huge.jpg",0,0,1,"$$","A local spot with a cozy vibe and a mix of flavors. Located at 10 Morton St, New York, NY 10014. Details are a bit unclear, but it's a great place to check out. ","10 Morton St, New York, NY 10014",-74.0035596,40.7312468
NA,"Butter","butter","Midtown","midtown","American","american","https://resy.com/cities/new-york-ny/venues/butter-midtown?date=2024-09-24&seats=2","https://images.squarespace-cdn.com/content/v1/5fdd006d45da1328afeed86e/1609439247797-4NNUI91U3B16XO6SMHCR/Butter+Atrium+view.jpg",0,0,1,"$$$$","Chic American eatery led by Chef Alex Guarnaschelli. High ceilings with nature-inspired decor, cozy booths for comfort, and a welcoming bar. Offers both upscale and laid-back dining with a menu that changes seasonally.","70 W 45th St, New York, NY 10036",-73.9821945,40.7563313
NA,"Dimsum Garden","dimsum-garden","Midtown","midtown","Asian","asian","Walk in Only","https://offloadmedia.feverup.com/secretnyc.co/wp-content/uploads/2021/12/25083337/dumpling-man-2-scaled.jpeg",1,0,1,"$$","A two-story spot serving genuine Shanghai-style dim sum, including famous Xiao Long Bao. Perfect for private parties and events, with BYOB and catering options. Casual and inviting.","338 Lexington Ave, New York, NY 10016",-73.9775275,40.7498312
NA,"Parla Pizza","parla-pizza","Upper West Side","upper-west-side","Pizza","pizza","https://resy.com/cities/new-york-ny/venues/parla-ny?date=2024-09-30&seats=2","https://cdn.prod.website-files.com/64e8cfcb5f956e093fa9dd2b/66c3c12c111db79024df9eac_Home11.webp",0,0,1,"$$","Cozy 30-seat spot from the team that brought you The Smith. Enjoy New York-style pizzas, Italian-inspired pastas, fresh veggies, and crafted cocktails. Focus is on top-notch ingredients and friendly service.","320 Columbus Ave, New York, NY 10023",-73.977468,40.7795405
NA,"Brooklyn Crab","brooklyn-crab","Red Hook","red-hook","Seafood","seafood","https://resy.com/cities/new-york-ny/venues/brooklyn-crab?date=2024-09-30&seats=2","https://yourbrooklynguide.com/wp-content/uploads/2021/03/Brooklyn-Crab-Restaurant-with-Car-in-Red-Hook.jpg",1,1,1,"$$","Tri-level seafood spot serving fresh, sustainable catches with outdoor seating and scenic views of the water. Enjoy minigolf and cornhole in a relaxed wharf vibe, plus a rooftop deck for chilling.","24 Reed St, Brooklyn, NY 11231",-74.0165403,40.6753603
NA,"Buttermilk Channel","buttermilk-channel","Red Hook","red-hook","American","american","https://resy.com/cities/new-york-ny/venues/buttermilk-channel?date=2024-09-30&seats=2","https://image.resy.com/3/003/2/5186/ba62ef191621366b9532992cdca7af0b97e76455/jpg/1600x1600",1,1,1,"$$","Cozy bistro with a warm vibe, famous for buttermilk fried chicken, cheddar waffles, and a great charcuterie board. Rustic charm meets communal comfort.","524 Court St, Brooklyn, NY 11231",-73.999141,40.6759733
NA,"The Good Fork Pub","the-good-fork-pub","Red Hook","red-hook","American","american","Walk in Only","https://media.timeout.com/images/105924228/750/422/image.jpg",0,1,1,"$$","Charming spot serving diverse seasonal New American dishes in a cozy atmosphere. Open since 2006, it's a favorite hangout created by chef Sohui Kim and her husband, Ben Schneider.","391 Van Brunt St, Brooklyn, NY 11231",-74.0142594,40.6759526
NA,"ACME","acme","NoHo","noho","French","french","https://www.sevenrooms.com/direct/reservation-request/acme/table","https://dynamic-media-cdn.tripadvisor.com/media/photo-o/1a/a1/28/4f/main-restaurant.jpg?w=1200&h=-1&s=1",0,1,0,"$$$$","Chic restaurant that switched from a New Orleans vibe to creative European dishes. Started with a Nordic twist under Chef Mads Refslund, then shifted to Italian-French bistro classics.","9 Great Jones St, New York, NY 10012",-73.9940546,40.7272258
NA,"The Parlour Room","the-parlour-room","Midtown","midtown","American","american","https://resy.com/cities/new-york-ny/venues/the-parlour-room?date=2024-10-01&seats=2","https://images.getbento.com/accounts/ed8ed4bdfcd7848abe69ab0c021508ce/media/images/48052PorterGabi-7502.jpg?w=1800&fit=max&auto=compress,format&cs=origin&h=1800",1,1,1,"$","A timeless American eatery with a cozy and stylish atmosphere. The menu features modern takes on classic dishes by Chef Luther Dowdy. Plus, there's a vast selection of 450 fine whiskeys and cocktails inspired by literature.","70 W 36th St, New York, NY 10018",-73.9862797,40.7505863
NA,"Inga’s Bar","ingas-bar","Brooklyn Heights","brooklyn-heights","American","american","https://resy.com/cities/new-york-ny/venues/ingas-bar?date=2024-10-02&seats=2","https://image.resy.com/3/003/2/59402/81b0009d810e10a1992885a5f56946ef7604d1ca/jpg/640x360",0,0,1,"$$","A lively and trendy tavern with a vibrant vibe, exposed brick, and a tin ceiling. It serves delicious food, inventive cocktails, and has friendly service. A local hotspot perfect for dining or grabbing a drink solo.","66 Hicks Street, Brooklyn, NY 11201",-73.9937373,40.6999588
NA,"Win Son","win-son","Williamsburg","williamsburg","Asian","asian","https://resy.com/cities/new-york-ny/venues/win-son?date=2024-07-29&seats=2","https://image.resy.com/3/003/2/8556/cb0fa2e547c9d90729daa660f2ad8253e509b73e/jpg/1600x1600",0,0,1,"$$","This spot serves elevated Taiwanese-American dishes in a laid-back, modern setting. Expect exposed brick, greenery, and retro Asian decor. The shareable menu includes items like lou rou fan and the Nutritious Sandwich. It's even got a MICHELIN Bib Gourmand award.","159 Graham Ave, Brooklyn, NY 11206",-73.9433955,40.7074472
NA,"PopUp Bagels","popup-bagels","Greenwich Village","greenwich-village","Deli & Bagel","deli--bagel","Walk in Only","https://i0.wp.com/xtalks.com/wp-content/uploads/2023/10/PopUp-Bagels-image-scaled.jpg?fit=2560%2C1920&ssl=1",1,0,0,"$$","This spot serves up fresh bagels with a crunchy crust and a soft inside. Known for its award-winning bagels, it requires a minimum order of three and includes cream cheese. Ideal for anyone craving a top-notch bagel experience.","177 Thompson St, New York, NY 10012",-74.0003471,40.7279626
